{"type":"Topology","transform":{"scale":[0.00003105401469401469,0.00002513449824449824],"translate":[122.93267356,20.42276189]},"objects":{"city":{"type":"GeometryCollection","geometries":[{"type":"MultiPolygon","arcs":[[[289]],[[290]],[[291]],[[292]],[[293,294]],[[295,296,297,298]]],"id":"兵庫県神戸市東灘区","properties":{"N03_001":"兵庫県","N03_002":null,"N03_003":"神戸市","N03_004":"東灘区","N03_007":"28101","id":"gci:28101A1968"}},{"type":"MultiPolygon","arcs":[[[299,300,301]],[[-301,302,303]],[[304,305,306]],[[-306,307,308]],[[309,310,311,-297]]],"id":"兵庫県神戸市灘区","properties":{"N03_001":"兵庫県","N03_002":null,"N03_003":"神戸市","N03_004":"灘区","N03_007":"28102","id":"gci:28102A1968"}},{"type":"MultiPolygon","arcs":[[[312,313,314,315]]],"id":"兵庫県神戸市兵庫区","properties":{"N03_001":"兵庫県","N03_002":null,"N03_003":"神戸市","N03_004":"兵庫区","N03_007":"28105","id":"gci:28105A1968"}},{"type":"MultiPolygon","arcs":[[[-314,316,317,318]]],"id":"兵庫県神戸市長田区","properties":{"N03_001":"兵庫県","N03_002":null,"N03_003":"神戸市","N03_004":"長田区","N03_007":"28106","id":"gci:28106A1968"}},{"type":"MultiPolygon","arcs":[[[-318,319,320,321,322]]],"id":"兵庫県神戸市須磨区","properties":{"N03_001":"兵庫県","N03_002":null,"N03_003":"神戸市","N03_004":"須磨区","N03_007":"28107","id":"gci:28107A1968"}},{"type":"MultiPolygon","arcs":[[[323,324,325,326,-321]]],"id":"兵庫県神戸市垂水区","properties":{"N03_001":"兵庫県","N03_002":null,"N03_003":"神戸市","N03_004":"垂水区","N03_007":"28108","id":"gci:28108A1968"}},{"type":"MultiPolygon","arcs":[[[327,328,329,-298,-312,330,-315,-319,-323,331,332,333]]],"id":"兵庫県神戸市北区","properties":{"OBJECTID":66,"N03_001":"兵庫県","N03_002":null,"N03_003":"神戸市","N03_004":"北区","N03_007":"28109","Shape_Leng":1.101998997359353,"Shape_Area":0.02374052863205,"id":"gci:28109A1973"}},{"type":"MultiPolygon","arcs":[[[334]],[[335]],[[336,-316,-331,-311]]],"id":"兵庫県神戸市中央区","properties":{"N03_001":"兵庫県","N03_002":null,"N03_003":"神戸市","N03_004":"中央区","N03_007":"28110","id":"gci:28110A1980"}},{"type":"MultiPolygon","arcs":[[[-332,-322,-327,337,338,339]]],"id":"兵庫県神戸市西区","properties":{"OBJECTID":84,"N03_001":"兵庫県","N03_002":null,"N03_003":"神戸市","N03_004":"西区","N03_007":"28111","Shape_Leng":0.758866812299747,"Shape_Area":0.013581291119253,"id":"gci:28111A1982"}},{"type":"MultiPolygon","arcs":[[[340]],[[341]],[[342]],[[343]],[[344]],[[345]],[[346]],[[347]],[[348]],[[349]],[[350]],[[351]],[[352]],[[353]],[[354]],[[355]],[[356]],[[357,358,359,360,361,362,363,364,365,366,367]]],"id":"兵庫県姫路市","properties":{"N03_001":"兵庫県","N03_002":null,"N03_003":null,"N03_004":"姫路市","N03_007":"28201","id":"gci:28201A1968"}},{"type":"MultiPolygon","arcs":[[[-219,368,-218,369,-217,370,-216,371,-215,372,-214,373,-213,374,-212,375,-211,376,-210,-209,377,-208,378,-207,379,-206,380,-205,381,-204,382,383,384]]],"id":"兵庫県尼崎市","properties":{"N03_001":"兵庫県","N03_002":null,"N03_003":null,"N03_004":"尼崎市","N03_007":"28202","id":"gci:28202A1968"}},{"type":"MultiPolygon","arcs":[[[385]],[[386,387,388,389]],[[390,391,392,393,-338,-326,394]]],"id":"兵庫県明石市","properties":{"N03_001":"兵庫県","N03_002":null,"N03_003":null,"N03_004":"明石市","N03_007":"28203","id":"gci:28203A1968"}},{"type":"MultiPolygon","arcs":[[[395]],[[396]],[[397,-384,398,399,-329,400]]],"id":"兵庫県西宮市","properties":{"N03_001":"兵庫県","N03_002":null,"N03_003":null,"N03_004":"西宮市","N03_007":"28204","id":"gci:28204A1968"}},{"type":"MultiPolygon","arcs":[[[401]],[[402,403,404,405]]],"id":"兵庫県洲本市","properties":{"N03_001":"兵庫県","N03_002":null,"N03_003":null,"N03_004":"洲本市","N03_007":"28205","id":"gci:28205A1968"}},{"type":"MultiPolygon","arcs":[[[406]],[[407,-295,408,-299,-330,-400]]],"id":"兵庫県芦屋市","properties":{"N03_001":"兵庫県","N03_002":null,"N03_003":null,"N03_004":"芦屋市","N03_007":"28206","id":"gci:28206A1968"}},{"type":"MultiPolygon","arcs":[[[409,-227,410,-226,411,-225,412,-224,413,-223,414,-222,415,-221,416,-220,-385,-398,417]]],"id":"兵庫県伊丹市","properties":{"OBJECTID":300,"N03_001":"兵庫県","N03_002":null,"N03_003":null,"N03_004":"伊丹市","N03_007":"28207","Shape_Leng":0.316625134217228,"Shape_Area":0.002461708039231,"id":"gci:28207A1968"}},{"type":"MultiPolygon","arcs":[[[418,419]],[[420,421,422,423]]],"id":"兵庫県相生市","properties":{"N03_001":"兵庫県","N03_002":null,"N03_003":null,"N03_004":"相生市","N03_007":"28208","id":"gci:28208A1968"}},{"type":"MultiPolygon","arcs":[[[424,425,426,427,-147,428,-146,429,-145,430,-144,431,-143,432,-142,433,-141,434,-140,435,-139,436,-138,437,-137,438,-136,439,-135,440,-134,441,-133,442,-132,443,-131,444,-130,445,-129,446,-128,447,-127,448,449,-126,450,-125,451,-124,452,-123,453,-122,454,-121,455,-120,456,-119,457,-118,458,-117,459,-116,460,-115,461,-114,462,-113,463,-112,-168,464,-167,465,-166,466,-165,467,468,-164,469,-163,470,-162,471,-161,472,-160,473,-159,474,-158,475,-157,476,-156,477,-155,478,-154,479,-153,480,-152,481,-151,482,-150,483,-149,484,-148,-111,485,-110,486,-109,487,488,-108,489,490,-107,491,-106,492,-105,493,-104,494,-103,495,-102,496,-101,497,-100,498,-99,499,-98,500,-97,501,-96,502,-95,503,-94,504,-93,505,-92,506,-91]]],"id":"兵庫県豊岡市","properties":{"N03_001":"兵庫県","N03_002":null,"N03_003":null,"N03_004":"豊岡市","N03_007":"28209","id":"gci:28209A1968"}},{"type":"MultiPolygon","arcs":[[[507,508,509,-393,510,511,512,-361,513]]],"id":"兵庫県加古川市","properties":{"N03_001":"兵庫県","N03_002":null,"N03_003":null,"N03_004":"加古川市","N03_007":"28210","id":"gci:28210A1968"}},{"type":"MultiPolygon","arcs":[[[514,515]],[[516]],[[-422,517,518,519,520,521,522,523,524,525,526,527,528,529,530,531,532,533,534,535,536,537,538,539,540,541,542,543,544,545,546,547,548,549,550]]],"id":"兵庫県赤穂市","properties":{"N03_001":"兵庫県","N03_002":null,"N03_003":null,"N03_004":"赤穂市","N03_007":"28212","id":"gci:28212A1968"}},{"type":"MultiPolygon","arcs":[[[551,552,553,554,555]]],"id":"兵庫県西脇市","properties":{"OBJECTID":902,"N03_001":"兵庫県","N03_002":null,"N03_003":null,"N03_004":"西脇市","N03_007":"28213","Shape_Leng":0.690770719379343,"Shape_Area":0.013078590418117,"id":"gci:28213A1968"}},{"type":"MultiPolygon","arcs":[[[556,-418,-401,-328,557,558],[559]]],"id":"兵庫県宝塚市","properties":{"OBJECTID":903,"N03_001":"兵庫県","N03_002":null,"N03_003":null,"N03_004":"宝塚市","N03_007":"28214","Shape_Leng":0.878467588918701,"Shape_Area":0.01000572026015,"id":"gci:28214A1968"}},{"type":"MultiPolygon","arcs":[[[-333,-340,560,-509,561,562,563]]],"id":"兵庫県三木市","properties":{"OBJECTID":904,"N03_001":"兵庫県","N03_002":null,"N03_003":null,"N03_004":"三木市","N03_007":"28215","Shape_Leng":0.909257886287637,"Shape_Area":0.017394353362146,"id":"gci:28215A1968"}},{"type":"MultiPolygon","arcs":[[[564,-362,-513]]],"id":"兵庫県高砂市","properties":{"N03_001":"兵庫県","N03_002":null,"N03_003":null,"N03_004":"高砂市","N03_007":"28216","id":"gci:28216A1968"}},{"type":"MultiPolygon","arcs":[[[-560]],[[-410,-557,565,-259,566,-258,567,-257,568,569,-256,570,-255,571,-254,572,-253,573,-252,574,-251,575,-250,576,-249,577,578,-248,579,-247,580,-246,581,-245,582,-244,-243,583,-242,584,585,-241,-240,586,-239,587,-238,588,-237,589,-236,590,591,-235,592,-234,593,594,-233,595,-232,596,-231,597,-230,598,-229,599,-228]]],"id":"兵庫県川西市","properties":{"N03_001":"兵庫県","N03_002":null,"N03_003":null,"N03_004":"川西市","N03_007":"28217","id":"gci:28217A1968"}},{"type":"MultiPolygon","arcs":[[[-562,-508,600,601]]],"id":"兵庫県小野市","properties":{"OBJECTID":910,"N03_001":"兵庫県","N03_002":null,"N03_003":null,"N03_004":"小野市","N03_007":"28218","Shape_Leng":0.584098073606284,"Shape_Area":0.009163716520788,"id":"gci:28218A1968"}},{"type":"MultiPolygon","arcs":[[[602,-558,-334,-564,603,604]]],"id":"兵庫県三田市","properties":{"OBJECTID":911,"N03_001":"兵庫県","N03_002":null,"N03_003":null,"N03_004":"三田市","N03_007":"28219","Shape_Leng":0.858699503348579,"Shape_Area":0.020754705662224,"id":"gci:28219A1968"}},{"type":"MultiPolygon","arcs":[[[-554,605,-601,-514,-360,606,607,608]]],"id":"兵庫県加西市","properties":{"OBJECTID":912,"N03_001":"兵庫県","N03_002":null,"N03_003":null,"N03_004":"加西市","N03_007":"28220","Shape_Leng":0.713649746765923,"Shape_Area":0.01489114553704,"id":"gci:28220A1968"}},{"type":"MultiPolygon","arcs":[[[609,-605,610,-552,611,612,-14,613,-13,614,-12,615,-11,616,-10,617,-9,618,-8,619,-7,620,-6,621,-5,622,-4,623,-3,624,-2,625,-1,-203,626,-202,627,-201,628,-200,629,-199,630,-198,631,632,-197,633,-196,634,635,-195,636,-194,637,-193,638,-192,639,-191,640,-190,641,-189,642,-188,643,-187,644,-186,645,-185,646,-184,647,-183,648,-182,-181,649,-180,650,-179,651,-178,652,-177,653,-176,654,-175,655,-174,656,-173,657,-172,658,-171,659,-170,660,-169,661,-289,662,-288,663,-287,664,-286]]],"id":"兵庫県丹波篠山市","properties":{"OBJECTID":913,"N03_001":"兵庫県","N03_002":null,"N03_003":null,"N03_004":"丹波篠山市","N03_007":"28221","Shape_Leng":1.348781491489626,"Shape_Area":0.037316539874332,"id":"gci:28221A2019"}},{"type":"MultiPolygon","arcs":[[[665,666,667,668,669,670,671,672,673,674,675,676,677,678,-426]]],"id":"兵庫県養父市","properties":{"OBJECTID":914,"N03_001":"兵庫県","N03_002":null,"N03_003":null,"N03_004":"養父市","N03_007":"28222","Shape_Leng":1.270767419366817,"Shape_Area":0.041936573963481,"id":"gci:28222A2004"}},{"type":"MultiPolygon","arcs":[[[-612,-556,679,680,-78,681,-77,682,-76,683,-75,684,-74,685,-73,686,-72,687,-71,688,-70,689,-69,690,-68,691,-67,692,-66,693,-65,694,-64,695,-63,696,-62,697,-61,698,699,-60,700,-59,701,-58,702,-57,703,-56,704,705,-55,706,-54,707,-53,708,-52,709,-51,710,-50,711,-49,712,-48,713,-47,714,-46,715,-45,716,-44,717,-43,718,-42,719,-41,720,-40,721,-39,722,-38,723,-37,724,725,-36,726,-35,727,-34,728,-33,729,-32,730,-31,731,-30,732,-29,733,734,-28,735,-27,736,-26,737,-25,738,-24,739,-23,740,-22,741,-21,742,-20,743,-19,744,-18,745,-17,746,-16,747,-15]]],"id":"兵庫県丹波市","properties":{"OBJECTID":915,"N03_001":"兵庫県","N03_002":null,"N03_003":null,"N03_004":"丹波市","N03_007":"28223","Shape_Leng":1.387136517537358,"Shape_Area":0.048802357084889,"id":"gci:28223A2004"}},{"type":"MultiPolygon","arcs":[[[748]],[[749,-404]]],"id":"兵庫県南あわじ市","properties":{"N03_001":"兵庫県","N03_002":null,"N03_003":null,"N03_004":"南あわじ市","N03_007":"28224","id":"gci:28224A2005"}},{"type":"MultiPolygon","arcs":[[[-90,750,-89,751,-88,752,-87,753,-86,754,-85,755,-84,756,-83,757,-82,758,-81,759,-80,760,-79,-681,761,762,763,-666,-425]]],"id":"兵庫県朝来市","properties":{"OBJECTID":1112,"N03_001":"兵庫県","N03_002":null,"N03_003":null,"N03_004":"朝来市","N03_007":"28225","Shape_Leng":1.256344708909105,"Shape_Area":0.039923337166335,"id":"gci:28225A2005"}},{"type":"MultiPolygon","arcs":[[[-406,764,765]]],"id":"兵庫県淡路市","properties":{"N03_001":"兵庫県","N03_002":null,"N03_003":null,"N03_004":"淡路市","N03_007":"28226","id":"gci:28226A2005"}},{"type":"MultiPolygon","arcs":[[[-764,766,-367,767,768,769,770,771,772,773,774,775,776,777,778,779,780,781,782,783,784,785,786,787,788,789,790,791,792,793,794,795,796,797,798,799,800,801,802,803,804,805,806,807,808,809,810,811,812,813,814,815,816,817,818,819,820,821,822,823,824,825,826,827,828,829,830,831,832,833,834,835,836,837,838,839,840,841,-667]]],"id":"兵庫県宍粟市","properties":{"OBJECTID":1180,"N03_001":"兵庫県","N03_002":null,"N03_003":null,"N03_004":"宍粟市","N03_007":"28227","Shape_Leng":1.612176370909616,"Shape_Area":0.065144996555708,"id":"gci:28227A2005"}},{"type":"MultiPolygon","arcs":[[[-604,-563,-602,-606,-553,-611]]],"id":"兵庫県加東市","properties":{"OBJECTID":1181,"N03_001":"兵庫県","N03_002":null,"N03_003":null,"N03_004":"加東市","N03_007":"28228","Shape_Leng":0.888763087093736,"Shape_Area":0.015542928175677,"id":"gci:28228A2006"}},{"type":"MultiPolygon","arcs":[[[-419,842]],[[-366,843,-364,844,-424,845,846,-768]]],"id":"兵庫県たつの市","properties":{"N03_001":"兵庫県","N03_002":null,"N03_003":null,"N03_004":"たつの市","N03_007":"28229","id":"gci:28229A2005"}},{"type":"MultiPolygon","arcs":[[[-566,-559,-603,-610,-285,847,-284,848,-283,849,-282,850,-281,851,-280,852,-279,853,-278,854,-277,855,-276,856,-275,857,-274,858,-273,859,-272,860,861,-271,862,-270,863,-269,864,-268,865,-267,866,-266,867,-265,868,869,-264,870,-263,871,-262,872,-261,873,-260]]],"id":"兵庫県川辺郡猪名川町","properties":{"OBJECTID":1216,"N03_001":"兵庫県","N03_002":null,"N03_003":"川辺郡","N03_004":"猪名川町","N03_007":"28301","Shape_Leng":0.718073891937172,"Shape_Area":0.008913687171783,"id":"gci:28301A1968"}},{"type":"MultiPolygon","arcs":[[[-555,-609,874,875,-762,-680]]],"id":"兵庫県多可郡多可町","properties":{"OBJECTID":1217,"N03_001":"兵庫県","N03_002":null,"N03_003":"多可郡","N03_004":"多可町","N03_007":"28365","Shape_Leng":0.860414010790322,"Shape_Area":0.01830435781017,"id":"gci:28365A2005"}},{"type":"MultiPolygon","arcs":[[[-339,-394,-510,-561]]],"id":"兵庫県加古郡稲美町","properties":{"OBJECTID":1218,"N03_001":"兵庫県","N03_002":null,"N03_003":"加古郡","N03_004":"稲美町","N03_007":"28381","Shape_Leng":0.31331873057233,"Shape_Area":0.0034383070672,"id":"gci:28381A1968"}},{"type":"MultiPolygon","arcs":[[[-387,876]],[[877,-389]],[[878]],[[-392,879,-511]]],"id":"兵庫県加古郡播磨町","properties":{"N03_001":"兵庫県","N03_002":null,"N03_003":"加古郡","N03_004":"播磨町","N03_007":"28382","id":"gci:28382A1968"}},{"type":"MultiPolygon","arcs":[[[-608,880,-358,881,-875]]],"id":"兵庫県神崎郡市川町","properties":{"OBJECTID":1223,"N03_001":"兵庫県","N03_002":null,"N03_003":"神崎郡","N03_004":"市川町","N03_007":"28442","Shape_Leng":0.497265748514577,"Shape_Area":0.008164411063637,"id":"gci:28442A1968"}},{"type":"MultiPolygon","arcs":[[[-607,-359,-881]]],"id":"兵庫県神崎郡福崎町","properties":{"OBJECTID":1224,"N03_001":"兵庫県","N03_002":null,"N03_003":"神崎郡","N03_004":"福崎町","N03_007":"28443","Shape_Leng":0.443410132743093,"Shape_Area":0.00451949184427,"id":"gci:28443A1968"}},{"type":"MultiPolygon","arcs":[[[-876,-882,-368,-767,-763]]],"id":"兵庫県神崎郡神河町","properties":{"OBJECTID":1225,"N03_001":"兵庫県","N03_002":null,"N03_003":"神崎郡","N03_004":"神河町","N03_007":"28446","Shape_Leng":0.941587172200453,"Shape_Area":0.019995123308145,"id":"gci:28446A2005"}},{"type":"MultiPolygon","arcs":[[[-844,-365]]],"id":"兵庫県揖保郡太子町","properties":{"OBJECTID":1226,"N03_001":"兵庫県","N03_002":null,"N03_003":"揖保郡","N03_004":"太子町","N03_007":"28464","Shape_Leng":0.300825833755615,"Shape_Area":0.002241024519465,"id":"gci:28464A1968"}},{"type":"MultiPolygon","arcs":[[[-423,-551,882,883,884,885,886,887,888,889,890,891,892,893,894,895,896,897,898,899,900,901,902,903,904,905,906,907,908,909,910,911,912,913,914,915,916,917,918,919,920,921,-846]]],"id":"兵庫県赤穂郡上郡町","properties":{"OBJECTID":1227,"N03_001":"兵庫県","N03_002":null,"N03_003":"赤穂郡","N03_004":"上郡町","N03_007":"28481","Shape_Leng":0.772254110523943,"Shape_Area":0.014817026923997,"id":"gci:28481A1968"}},{"type":"MultiPolygon","arcs":[[[-769,-847,-922,922,923,924,925,926,927,928,929,930,931,932,933,934,935,936,937,938,939,940,941,942,943,944,945,946,947,948,949,950,951,952,953,954,955,956,957,958,959,960,961,962,963,964,965,966,967,968,969,970,971,972,973,974,975,976,977,978,979,980,981,982,983,984,985,986,987,988,989,990,991,992,993,994,995,996,997,998,999,1000,1001,1002,1003,1004,1005,1006,1007,1008,1009,1010,1011,1012,1013,1014,1015]]],"id":"兵庫県佐用郡佐用町","properties":{"OBJECTID":1228,"N03_001":"兵庫県","N03_002":null,"N03_003":"佐用郡","N03_004":"佐用町","N03_007":"28501","Shape_Leng":1.083723882442053,"Shape_Area":0.030364563708908,"id":"gci:28501A1968"}},{"type":"MultiPolygon","arcs":[[[1016]],[[1017]],[[1018,1019]],[[-427,-679,1020,1021,1022,1023,1024,1025,1026,1027,1028,1029,1030,1031,1032,1033,1034,1035,1036,1037,1038,1039,1040,1041,1042,1043,1044,1045,1046,1047,1048,1049,1050,1051,1052,1053]]],"id":"兵庫県美方郡香美町","properties":{"N03_001":"兵庫県","N03_002":null,"N03_003":"美方郡","N03_004":"香美町","N03_007":"28585","id":"gci:28585A2005"}},{"type":"MultiPolygon","arcs":[[[1054,1055,1056,1057,1058,1059,1060,1061,1062,1063,1064,1065,1066,1067,1068,1069,1070,1071,1072,1073,1074,1075,1076,1077,1078,1079,1080,1081,1082,1083,1084,1085,1086,1087,1088,1089,1090,1091,1092,1093,1094,1095,1096,1097,1098,1099,1100,1101,1102,1103,1104,1105,1106,1107,1108,1109,1110,1111,1112,1113,1114,1115,1116,1117,1118,1119,1120,1121,1122,1123,1124,1125,1126,1127,1128,1129,1130,1131,-1053]],[[-1019,1132]]],"id":"兵庫県美方郡新温泉町","properties":{"N03_001":"兵庫県","N03_002":null,"N03_003":"美方郡","N03_004":"新温泉町","N03_007":"28586","id":"gci:28586A2005"}}]}},"arcs":[[[397908,586829],[-62,-30]],[[397803,586786],[-58,-3]],[[397719,586791],[-12,6]],[[397675,586825],[-55,103],[-99,-13],[-139,104]],[[397351,587002],[-57,-4]],[[397276,586982],[-200,-25],[-139,34]],[[396902,587024],[-145,-35],[-113,64],[-48,-50]],[[396552,587014],[-178,-8]],[[396359,587001],[-131,4]],[[396220,587023],[-35,16]],[[396151,587029],[-75,3]],[[396063,587030],[-58,-179]],[[395992,586835],[-21,-131]],[[395957,586677],[-5,-112],[-107,-80]],[[395835,586485],[-34,11]],[[395785,586478],[-92,-42]],[[395677,586429],[-21,8]],[[395622,586424],[-185,2]],[[395429,586416],[-8,-4]],[[395408,586407],[-50,-22]],[[395319,586379],[-128,38]],[[395186,586431],[-65,102]],[[395102,586542],[-16,9]],[[395074,586557],[-38,15]],[[395010,586598],[-12,70],[-189,151],[-92,-9]],[[394698,586812],[-76,-9],[3,152]],[[394634,586973],[-7,41]],[[394637,587036],[34,163]],[[394699,587244],[15,14]],[[394707,587287],[-89,170]],[[394611,587495],[39,113],[153,83],[200,-20],[33,77],[-60,197]],[[394966,587969],[-15,14]],[[394953,588003],[-55,85],[-130,7],[-96,103],[-23,127],[-77,66]],[[394560,588401],[-11,68],[-95,93],[-100,-60],[-67,12]],[[394258,588513],[-46,18]],[[394186,588542],[-117,192]],[[394023,588749],[-113,-47],[-106,53]],[[393795,588764],[-222,225],[55,123],[147,44]],[[393802,589169],[97,234]],[[393901,589435],[50,46],[19,146],[-74,249],[-66,85]],[[393841,589969],[-58,94],[-19,185]],[[393752,590263],[-32,27]],[[393699,590314],[-133,68]],[[393542,590374],[-89,40]],[[393424,590441],[-67,27]],[[393326,590473],[-83,-61]],[[393226,590413],[-115,21]],[[393092,590435],[-64,88],[-96,-11],[-160,-160]],[[392743,590342],[-196,101],[-114,-25],[-368,126]],[[392043,590507],[-200,-166]],[[391830,590311],[-100,-53],[-91,57],[-105,-68],[-35,-108]],[[391485,590111],[-144,-75]],[[391332,590013],[-71,-241],[-91,-93],[-56,23],[-116,-55],[-60,-147],[-161,-87],[-109,178],[6,77]],[[390669,589718],[-46,109]],[[390583,589835],[-40,28],[25,122],[-104,110],[-6,92],[-64,109]],[[390425,590329],[-7,13]],[[390418,590356],[7,136],[-38,-2]],[[390375,590499],[-72,-49]],[[390290,590436],[-140,-31]],[[390132,590406],[-179,72]],[[389938,590454],[-58,-66]],[[389875,590379],[-56,-39]],[[389798,590341],[-55,75],[-100,40]],[[389622,590461],[-202,63]],[[389402,590527],[-41,-6]],[[389363,590542],[-69,37]],[[389281,590591],[-65,37]],[[389204,590638],[-9,19]],[[389186,590680],[-67,-13]],[[389107,590661],[-208,74]],[[388895,590747],[82,210],[-11,149]],[[388975,591130],[-113,154]],[[388850,591303],[-262,98],[-25,144]],[[388552,591546],[-65,-52],[-136,-5]],[[388331,591508],[-176,102],[-109,6],[-213,93],[-282,39],[-47,73],[-199,1],[-105,70]],[[387157,591890],[-111,124],[-161,53],[-32,123],[-108,45]],[[386715,592235],[-18,12]],[[386679,592252],[-96,-44]],[[386583,592208],[-109,6],[-320,174]],[[386091,592474],[-33,124],[152,217]],[[386207,592851],[-37,92],[105,165],[-44,186],[-119,104]],[[386084,593407],[-148,79],[5,117]],[[385951,593659],[-21,70]],[[385937,593740],[38,6],[1,146],[140,110],[11,61],[-146,406],[53,168],[201,350],[12,157],[-22,172],[-61,91]],[[386145,595442],[-14,79]],[[386111,595528],[16,73]],[[386129,595630],[37,20]],[[386182,595642],[69,123],[7,93],[78,32]],[[386361,595913],[54,216],[37,36]],[[386470,596177],[8,1]],[[386478,596178],[42,-1]],[[386549,596196],[162,116]],[[386733,596336],[85,69]],[[386850,596412],[290,-191],[58,7]],[[387229,596235],[47,10],[152,-110],[17,-61]],[[387457,596048],[199,-206],[316,-23],[87,-42]],[[388071,595765],[69,-62]],[[388149,595684],[76,-85],[-49,-89],[45,-130]],[[388243,595363],[44,-48],[258,50]],[[388563,595363],[92,6],[116,148],[203,38],[77,97],[82,-41],[91,50]],[[389229,595683],[80,130]],[[389311,595826],[17,56]],[[389337,595902],[53,50]],[[389414,595972],[135,134],[10,180],[292,-32]],[[389877,596240],[148,-13],[51,-57],[93,12],[26,94]],[[390184,596294],[2,98]],[[390197,596410],[4,173]],[[390187,596623],[-22,104]],[[390119,596799],[31,132],[-42,143],[46,78],[-16,141],[44,188],[78,93],[-46,190]],[[390221,597787],[-9,64]],[[390205,597876],[-8,26]],[[389786,601345],[-5,52]],[[389754,601430],[-148,-8],[-47,42],[-143,-42]],[[389403,601415],[-35,-23]],[[389331,601397],[-176,-25],[-306,-172]],[[388830,601217],[-73,62],[-115,-52],[-166,37],[-185,-122]],[[388277,601126],[-49,-24]],[[388220,601088],[-2,-42]],[[388213,601038],[-200,-44],[-40,-127]],[[387951,600856],[-27,-40],[-144,44]],[[387756,600859],[-286,-219]],[[387465,600611],[-51,-171]],[[387400,600428],[-154,-50],[-30,48]],[[387208,600447],[-65,55],[-76,-61],[-117,-25],[-40,37],[-128,-53]],[[386753,600424],[-26,3]],[[386700,600418],[-155,-61],[-92,32],[-114,-62],[-92,30]],[[386240,600388],[-117,123],[-6,214],[-122,100]],[[385978,600842],[-120,123],[67,70],[31,126],[-21,126],[58,92]],[[385985,601405],[-35,83],[-100,39],[-18,145]],[[385813,601661],[-201,58],[-20,60],[-120,49],[-58,190]],[[385415,602030],[-34,72]],[[385346,602120],[-203,89],[-88,92],[-67,-48]],[[384977,602252],[-155,131]],[[384794,602389],[-42,30],[14,115],[-46,105],[-129,166],[-95,60]],[[384474,602898],[-133,-13],[32,126]],[[384372,603036],[-119,113]],[[384225,603169],[-37,35]],[[384163,603203],[8,117],[-171,2]],[[383982,603321],[-101,85],[136,174],[179,135],[65,101],[61,360],[-33,199],[160,93]],[[384464,604488],[5,10]],[[384471,604516],[60,167],[-36,71]],[[384500,604779],[-34,58]],[[384469,604857],[-54,241],[31,193]],[[384428,605299],[-106,-20],[-55,130],[43,69],[-39,172]],[[384276,605673],[55,132],[-68,53]],[[384241,605869],[-26,27]],[[384227,605914],[95,166],[3,78]],[[390197,597902],[-145,173]],[[390049,598097],[-2,56]],[[390044,598168],[-2,54]],[[390037,598257],[-27,30]],[[390001,598303],[28,107]],[[390025,598426],[-82,135]],[[389933,598571],[-6,32]],[[389930,598624],[-22,189],[-185,114]],[[389722,598939],[16,110]],[[389738,599070],[125,56]],[[389884,599133],[65,313]],[[389941,599469],[26,86],[-65,101]],[[389865,599668],[-133,28]],[[389721,599709],[-94,40],[294,262],[125,197]],[[390040,600219],[-68,96]],[[389977,600331],[17,55]],[[389994,600406],[-6,195]],[[389976,600642],[-79,154]],[[389906,600814],[-52,194],[-35,3]],[[389808,601016],[-51,64],[17,216]],[[389784,601312],[2,33]],[[400546,581771],[-60,129],[21,160],[-42,93],[83,148],[121,61]],[[400690,582371],[57,31],[-32,144]],[[400717,582574],[79,91],[100,37],[102,89]],[[401018,582805],[25,46]],[[401056,582856],[88,17]],[[401165,582867],[104,15],[100,101]],[[401383,582981],[74,16],[0,108]],[[401462,583136],[-32,84],[46,169],[52,71]],[[401545,583463],[28,74]],[[401535,583564],[-7,6]],[[401522,583585],[-28,117],[-85,38]],[[401395,583751],[1,13]],[[401386,583783],[-184,86]],[[401202,583869],[-98,-40]],[[401090,583825],[-15,108]],[[401080,583961],[39,148]],[[401133,584121],[-7,139]],[[401127,584282],[107,61],[25,63]],[[401255,584424],[-125,112]],[[401115,584549],[-63,90]],[[401039,584652],[-19,113],[114,168]],[[401137,584953],[52,49]],[[401153,585055],[-9,37],[-244,41],[-186,-6]],[[400690,585120],[-96,-20]],[[400584,585109],[-25,63]],[[400546,585175],[-361,49],[-52,47]],[[400122,585314],[-108,92],[-172,-34],[-222,3],[-91,82],[9,110],[-53,152]],[[399514,585731],[54,35],[3,158],[-312,4],[-143,-22],[-90,-104],[-156,6]],[[398857,585794],[-116,-8],[-129,-63],[-111,8],[-137,-82],[-136,26]],[[398173,585684],[-115,-82],[-181,49]],[[397870,585650],[-99,68]],[[397754,585731],[-73,12]],[[397660,585776],[-54,41],[-50,162],[147,-10],[86,74],[61,150]],[[397852,586226],[17,44]],[[397903,586283],[99,95],[-64,150],[-30,301]],[[401707,567918],[7,12]],[[401764,568005],[123,108],[112,56]],[[402082,568203],[193,71],[181,238],[207,116]],[[402747,568660],[156,65],[81,70]],[[403005,568837],[16,59],[-82,291]],[[402939,569207],[33,111],[78,72],[206,9],[158,-47]],[[403414,569352],[-45,82]],[[403368,569457],[43,475],[-27,172],[-74,-43],[-35,130]],[[403270,570218],[28,151]],[[403296,570402],[-41,30]],[[403234,570422],[-33,-45]],[[403181,570337],[-15,-2]],[[403116,570375],[-32,64]],[[403099,570504],[-3,168]],[[403077,570703],[-139,60]],[[402918,570760],[-6,0]],[[402912,570760],[23,125]],[[402935,570905],[25,195],[-77,211]],[[402883,571382],[-71,214],[35,12]],[[402848,571614],[-39,78]],[[402779,571685],[-68,9],[-141,183],[17,27]],[[402582,571942],[-48,-10]],[[402523,571946],[-113,127],[-14,64],[-82,-20]],[[402307,572109],[-70,-15]],[[402237,572094],[-8,13]],[[402205,572141],[-71,181]],[[402108,572363],[-66,186]],[[402035,572568],[-43,222]],[[401991,572816],[26,47]],[[402041,572895],[102,114],[95,221]],[[402236,573311],[17,222],[-78,215]],[[402158,573785],[-19,90],[-123,215],[103,-27],[125,25],[125,75]],[[402425,574209],[65,79]],[[402491,574316],[-31,81]],[[402442,574432],[84,230]],[[402544,574700],[49,100],[-25,85],[56,114]],[[402640,575010],[40,71]],[[402680,575081],[-8,49]],[[402671,575155],[87,260],[33,196],[101,59]],[[402903,575702],[23,107]],[[402926,575809],[-8,122]],[[402893,575941],[-158,-111]],[[402721,575828],[-103,-37],[-96,-129],[-67,71],[61,89],[-44,63],[-141,351]],[[402313,576255],[-94,-8]],[[402170,576249],[-55,-1],[-21,138],[140,52],[27,90],[209,122]],[[402558,576664],[82,37]],[[402656,576715],[44,62]],[[402725,576798],[404,-16],[169,-79],[180,1]],[[403507,576715],[99,120]],[[403606,576855],[-10,99],[83,49],[-24,92]],[[403642,577118],[-7,18]],[[403613,577126],[-179,-88],[-122,112],[-139,23],[-105,149]],[[403064,577342],[-37,15]],[[402999,577366],[-187,191]],[[402799,577541],[-85,-81],[-115,54],[-86,-50],[-212,-18]],[[402280,577430],[-55,-68],[-157,-23]],[[402068,577339],[-3,6]],[[402053,577384],[-17,83]],[[402020,577496],[14,157],[-226,-74],[-31,69]],[[401794,577653],[-148,89],[-51,-23],[-174,25]],[[401403,577747],[-61,12],[-78,-97]],[[401210,577670],[-93,55]],[[401102,577741],[-42,91]],[[401059,577845],[24,72]],[[401075,577937],[-66,204],[-120,87],[-134,-40],[-58,44],[-75,-84]],[[400608,578121],[-31,8]],[[400571,578132],[-87,77]],[[400460,578221],[-141,8],[-111,-73],[-83,60],[-49,145]],[[400038,578431],[-160,86]],[[399851,578547],[-98,7],[-50,96],[119,204],[7,88]],[[399819,578980],[51,187]],[[399889,579177],[45,-22]],[[399959,579167],[163,54],[47,57],[-80,98]],[[400051,579396],[-106,191]],[[399947,579602],[40,52]],[[399981,579669],[-28,44],[23,293]],[[399970,580023],[-13,16]],[[399948,580079],[-22,28]],[[399914,580122],[19,79]],[[399955,580208],[40,2],[-9,290],[47,32],[2,220]],[[400021,580782],[-1,8]],[[400013,580810],[0,146],[-262,74],[-78,-51],[-139,20]],[[399534,580999],[-60,187],[-134,179],[-115,6],[114,176],[103,106]],[[399465,581661],[100,27]],[[399589,581683],[53,63]],[[399675,581756],[158,51],[13,186],[92,16],[253,-63],[48,-127],[191,-99],[109,51]],[[397614,566098],[-109,-2],[-73,562],[191,26],[77,-584],[-86,-2]],[[396778,566807],[102,111],[1237,168],[-1244,-174],[-95,-105]],[[397653,567926],[218,-25],[30,-231],[-347,63],[14,-110],[345,-66],[33,-251],[-437,-54],[-723,-103],[-73,619],[388,178],[35,-80],[226,31],[16,86],[275,-57]],[[398379,568431],[4,-171],[-336,-46],[-46,298],[35,111],[58,28],[-42,112],[306,-58],[21,-274]],[[398367,568784],[-2,4]],[[398365,568788],[2,-4]],[[398363,568793],[-295,15],[-98,-69],[-1,-116],[-128,-8],[-177,-86],[30,-48],[132,26],[43,-316],[-523,-70],[-29,182],[-98,8],[9,-204],[-447,-60]],[[396781,568047],[-36,298],[-260,13],[-65,153],[211,90],[-23,116],[-93,184],[-90,79],[-22,312],[137,43],[41,102],[-96,121],[20,142],[88,34],[89,-35],[129,166],[99,14],[74,81],[44,133],[-60,87],[2,85],[-58,117],[-67,32],[-38,114],[-49,3],[198,179],[-96,163]],[[396860,570873],[144,162],[87,49],[93,143]],[[397184,571227],[92,-182],[57,-182],[77,-140],[63,-47],[75,-179],[76,-92],[23,-350],[191,-117],[71,-131],[-161,-7],[135,-143],[60,2],[73,-164],[26,-133],[88,-245],[109,48],[124,-372]],[[395824,567499],[-4,13]],[[395820,567512],[2,0]],[[395822,567512],[2,-13]],[[395820,567512],[1,13]],[[395821,567525],[1,-13]],[[395821,567525],[-3,13]],[[395818,567538],[2,0]],[[395820,567538],[1,-13]],[[395818,567538],[1,13]],[[395819,567551],[1,-13]],[[396781,568047],[-287,-39],[-182,81],[-379,-54],[7,-48],[217,-11],[109,-210],[-461,-63],[-164,151],[-86,-54]],[[395555,567800],[-45,45],[130,95],[-63,165],[-239,485],[-45,197],[-175,-56],[-52,154],[-143,92],[69,236],[-36,204]],[[394956,569417],[5,80],[-60,174],[-1,159],[88,68],[-137,260],[308,118],[126,3],[245,50],[152,146],[262,108],[53,-23],[147,83],[12,64],[441,140],[167,-21],[96,47]],[[394488,566848],[-176,9],[16,-150],[142,60],[155,-51],[-44,-145],[-72,24],[-34,-87],[-170,87],[101,-329],[86,46],[35,-101],[81,-47],[-116,-141],[-518,-65]],[[393974,565958],[-19,159],[-232,-39],[12,145],[-6,434],[-74,96],[41,158],[-138,213],[-6,86],[-62,19],[-105,251],[-132,164],[-69,-11],[-47,90],[-110,64]],[[393027,567787],[103,114],[77,-15],[53,121],[108,-4],[153,197],[88,64],[143,40],[226,168],[85,140]],[[394063,568612],[70,-279],[82,-134],[2,-221],[-57,-173],[120,21],[-13,-108],[-147,-134],[32,-32],[-98,-66],[43,-139],[117,-150],[34,-118],[247,-112],[-7,-119]],[[393974,565958],[-511,-69],[-30,120],[-134,-55],[113,-73],[-97,-22],[-225,-114]],[[393090,565745],[-62,187],[-105,133],[231,190],[-302,365],[-37,332],[-63,-16],[-37,171],[122,33],[5,124],[-40,112],[-120,3],[-94,88]],[[392588,567467],[67,78],[19,117],[190,138],[163,-13]],[[393090,565745],[-91,-46],[-73,53],[-269,-5],[-55,-42],[-105,35],[-352,-52],[-162,-60],[-96,-97],[-296,-95]],[[391591,565436],[-8,225],[81,198],[129,72],[-10,62],[77,127],[-36,47],[-89,-62],[-68,20],[-3,79],[-110,105],[-95,27],[-67,119],[-68,257],[-82,-78],[-168,-10],[-38,90],[63,166],[84,-53],[75,25],[-55,167],[102,66],[-26,85],[-146,-46],[-79,-94]],[[391054,567030],[-172,303],[-110,-11],[-2,62],[100,170],[-146,71],[-17,47],[164,100],[86,-80],[81,48],[48,-69],[114,-53],[59,93],[215,-4],[100,44],[62,118],[21,127],[-75,125],[54,82],[-46,89]],[[391590,568292],[41,-64],[133,79],[3,254],[39,-214],[71,59],[99,-17],[68,-80],[56,191],[56,-33],[-61,-122],[32,-96],[-73,-67],[161,-92],[-41,-77],[80,-156],[117,-21],[76,-130],[-36,-18],[38,-131],[83,-11],[56,-79]],[[391591,565436],[-254,-38],[-119,-76],[-235,-43],[8,-97],[-465,-110],[-65,67],[7,-99],[-58,-13],[26,111],[-200,-25],[19,-86],[-195,12],[-205,126],[-91,28],[-146,107],[29,41],[-166,172]],[[389481,565513],[-88,117],[-199,141]],[[389194,565771],[45,170],[290,289],[110,153],[-52,42]],[[389587,566425],[67,121],[136,118],[101,180],[121,-43],[36,99],[164,164],[259,-95],[190,113],[365,-139],[28,87]],[[397621,575424],[163,-252],[-10,-100],[52,-244],[168,-188],[-2,-90],[62,-98]],[[398054,574452],[-77,-38],[-53,-189],[-142,-11],[-104,-176],[27,-89],[-91,-43],[-171,14],[-74,-45],[-97,55],[-164,-9],[-6,-73],[-121,-167],[-149,63],[-111,9],[-152,63],[-123,113],[-130,-11],[-217,-106],[-12,-321],[-66,-219],[11,-161],[-39,-38],[9,-187],[86,-119],[14,-248],[274,-193],[-23,-210],[181,53],[69,189],[59,-21],[79,-139],[73,47],[179,-20],[127,-131],[181,20],[-58,-235],[55,-24],[20,-164],[-79,-209],[26,-114],[-59,-112]],[[397206,571256],[-22,-29]],[[394956,569417],[-562,-603],[-342,-72],[11,-130]],[[391590,568292],[-73,65],[74,57],[38,100],[-29,214],[-297,356],[101,115],[90,5],[116,86],[103,-135],[41,151],[-45,85],[70,156],[-171,88],[64,75],[-66,96],[-19,160],[-42,45],[-39,183],[-62,22],[-75,171],[-175,-43],[-65,73],[-52,199],[-201,-35],[-113,-60],[-175,60]],[[390588,570581],[140,145],[105,-9],[46,58],[235,96],[-24,93],[169,193],[103,29],[279,-21],[-61,123],[-9,151],[105,30],[-1,57],[-108,124],[-171,63],[-122,196],[-45,163],[-224,168],[76,248],[-42,163],[166,40],[135,174],[-15,92],[71,102],[40,-16],[123,82],[8,173],[139,21],[138,68],[156,293],[11,71],[179,99],[116,-24],[104,-115],[126,-199],[87,-26],[257,3],[35,-57],[106,18],[84,-66],[88,18],[23,80],[193,142],[97,38],[14,-70],[74,56],[1,95],[82,186],[14,119],[-64,319],[44,96],[-48,76],[5,189],[42,22],[-51,110],[77,188],[-73,75],[-58,179],[82,10],[166,89],[173,158]],[[393986,575559],[77,54],[88,-95],[191,-16],[124,35],[101,-57],[19,-101],[64,12],[132,-179],[54,20],[114,-62],[5,-81],[121,-55],[275,96],[71,-3],[132,-137],[60,33],[137,-28],[204,-96],[125,33],[72,102],[230,96],[200,-21],[126,56],[312,236],[42,-15],[473,50],[86,-12]],[[396209,565679],[62,-221],[65,-86],[-58,-28],[-769,-74],[-123,-45],[-55,29],[-14,144],[150,248],[462,45],[4,-47],[133,13],[-5,47],[148,-25]],[[395676,567348],[178,-194],[-297,-113],[47,-95],[330,125],[125,-94],[-397,-151],[46,-94],[400,150],[98,-229],[-346,-132],[78,-160],[346,131],[201,-415],[-901,-30],[-341,275],[-69,5],[-8,88],[-58,-3],[-30,572],[91,91],[17,84],[55,-47],[136,84],[-14,93],[313,59]],[[395555,567800],[-56,-55],[118,-109],[-344,-228],[-115,105],[-67,-76],[57,-226],[-40,-26],[-43,168],[-234,-7],[-21,-130],[-28,204],[-67,37],[6,-163],[-62,-10],[11,-90],[-79,148],[-62,-23],[161,-386],[-55,-86],[-147,1]],[[389587,566425],[-130,91],[-147,-179],[-141,64],[-88,-59],[5,84],[70,-5],[-114,85],[-118,-7],[19,-46],[-109,-19],[-84,-96],[-77,69],[-90,-88],[-78,78],[-154,-51],[-180,-7],[-103,142],[-104,8],[-18,-138],[-106,37],[-77,297],[-74,70],[-62,144],[65,107],[-22,132],[-67,23],[-137,187],[-21,99],[72,165],[-78,284],[55,42],[-85,257],[72,33],[-24,112],[33,82],[-61,111],[-183,58],[-18,-47],[-164,-38],[-312,30],[-76,-175],[-100,-117],[-95,-58],[-51,-131],[-89,-89],[-8,105],[-157,61],[-5,99],[-103,79],[-3,74],[-148,-62],[-66,142],[-58,-43],[-40,132],[50,45],[-109,242],[78,41]],[[385772,568881],[188,191],[170,70],[104,-29],[266,109],[-4,25],[294,76],[144,7],[178,177],[176,295],[212,267],[10,53],[-122,350],[-40,69]],[[387348,570541],[216,-29],[58,55],[59,-51],[162,156],[31,102],[89,22],[70,109],[245,74],[205,8],[166,57],[-33,-218],[153,-1],[63,-94],[291,-60],[265,-153],[29,68],[270,72],[150,-49],[60,106],[-2,93],[134,12],[67,62],[138,-74],[17,-71],[105,-137],[71,-33],[161,14]],[[371976,564052],[48,-60],[-105,-180],[-42,47],[-70,-85],[-76,7],[4,106],[74,38],[20,116],[147,11]],[[371595,564559],[76,-80],[-104,-38],[28,118]],[[372522,565491],[-48,-70],[25,-145],[-62,-55],[-64,59],[43,176],[86,83],[20,-48]],[[375246,565778],[89,-212],[-45,0],[-26,116],[-92,133],[74,-37]],[[373576,565906],[3,-141],[-150,-5],[46,115],[101,31]],[[370594,566199],[17,-191],[-163,13],[-28,-86],[-75,41],[44,151],[122,9],[83,63]],[[373396,566324],[43,-70],[-92,-23],[49,93]],[[372993,566426],[6,-103],[106,-107],[-27,-164],[-176,19],[-12,-74],[-77,8],[96,-140],[146,-29],[-5,-66],[-92,-50],[128,-22],[-105,-104],[-2,-130],[-106,134],[-135,18],[3,54],[-221,118],[9,112],[78,68],[-21,86],[169,78],[9,-35],[158,105],[-2,187],[73,37]],[[372083,566904],[146,-150],[133,7],[-109,-204],[-71,-70],[-10,-113],[160,46],[17,-79],[-42,-208],[104,37],[47,-101],[-20,-90],[82,-70],[-26,-100],[-77,-26],[-167,66],[-112,-125],[-161,-28],[124,106],[92,150],[-28,53],[-149,-13],[-42,-88],[-100,136],[-208,-137],[-160,-154],[-57,-88],[-90,30],[-40,79],[-165,85],[85,43],[-27,181],[50,105],[-48,93],[54,112],[90,-80],[-60,246],[102,114],[139,37],[-105,-204],[161,-57],[80,-82],[51,61],[-7,101],[79,69],[75,-56],[-26,-120],[207,89],[22,104],[-73,141],[32,80],[-48,58],[96,14]],[[374853,567106],[107,-92],[80,3],[46,-143],[66,-59],[106,64],[144,-116],[14,-235],[-174,-173],[-20,-107],[-130,60],[-97,-52],[4,-127],[-66,-50],[-152,55],[-76,219],[-89,129],[-92,68],[-2,199],[-32,65],[69,63],[199,85],[-39,109],[134,35]],[[375965,567211],[108,-94],[-154,-3],[46,97]],[[373637,567498],[65,-76],[-103,-57],[-51,-102],[-81,-36],[-37,69],[-53,-168],[104,4],[55,-54],[-36,-130],[83,129],[5,71],[129,40],[91,-57],[86,87],[82,-9],[-50,-120],[28,-128],[-77,-135],[94,-282],[-141,-176],[-183,12],[-32,99],[-128,69],[-182,160],[-56,-51],[-61,112],[-136,-2],[-26,67],[-97,34],[6,164],[-107,112],[45,94],[59,-20],[87,82],[65,-38],[179,31],[63,123],[129,46],[61,-82],[121,118]],[[376931,567535],[105,-89],[-38,-72],[-49,84],[-71,-6],[53,83]],[[379410,567577],[1,-121],[-58,112],[57,9]],[[378994,570850],[-20,-4],[-109,-427],[-228,10],[-10,48],[68,273],[299,100]],[[375889,570907],[-35,-14],[58,-218],[-191,-53],[21,-82],[-81,-23],[30,-109],[-99,2],[-104,387],[401,110]],[[377751,570637],[-32,-45],[-167,31],[150,289],[181,-87],[-132,-188]],[[379585,582084],[-43,-50],[14,-147],[-34,-178],[100,-67],[25,-151],[-51,-108],[-65,5],[-104,-95],[-38,44],[-127,-111],[-38,-105],[-32,-226],[-68,-136]],[[379124,580759],[-112,-72],[-137,-18],[-103,-234],[112,-86],[89,-347],[230,-68],[127,-238],[-96,-384],[-146,-135],[49,-242],[132,5],[76,-48],[146,-271],[28,-162],[-103,-187],[65,-71],[42,-175],[75,20],[145,-156],[-6,-137],[131,-59],[-4,-186],[223,-53],[8,38],[344,-5],[52,-134],[74,14],[72,102],[90,-40],[309,-55],[60,35],[7,-297],[37,-128],[212,-76],[124,1],[128,-124],[56,-95],[66,78],[174,20],[50,-88]],[[381950,576701],[-20,-61],[91,-172],[-40,-85],[64,-170],[-93,-166],[-26,-167],[33,-67],[-180,-172],[-76,-152],[121,-153],[-21,-91],[263,-146],[40,-49],[182,-64],[141,-9],[50,-111],[-57,-38],[168,-146]],[[382590,574682],[-88,-48],[-124,-148],[-70,-12],[-78,79],[-156,86],[-105,-14],[19,-129],[96,-139],[53,-154],[60,4],[-19,-309],[136,-143],[-227,14],[24,-174],[-77,-38],[-158,-6],[-33,59],[-99,-117],[-82,-21],[-103,94],[-152,10],[-111,-142],[-13,-191],[95,-41],[-367,14],[-32,-194],[125,-74],[32,-66],[200,78],[55,-36],[-8,-109],[110,-116],[-33,-58]],[[381460,572641],[-154,-30],[-71,-70],[65,-193],[-54,-111],[-120,-41],[-66,-127],[-57,-193],[-46,41],[-105,-55],[-124,33],[-74,-77],[-214,146],[54,145],[1,108],[-69,42],[-121,-292],[87,-104],[98,-256],[-107,-82],[32,-114],[68,-44],[-3,-85],[67,-60],[-8,-251],[69,-6],[-17,232],[57,201],[102,51],[63,106],[-30,200],[178,-201],[-9,-117],[144,-143],[10,-199],[-61,-65],[-140,-524]],[[380905,570506],[-219,138],[-264,127],[-128,24],[-40,-56],[-280,55],[-242,81],[-428,204],[-159,14],[-75,-81],[-20,65],[-111,50],[-26,-65],[87,-109],[-7,-51],[-293,-76],[-164,42],[54,233],[-132,42],[-64,-242],[-209,55],[-101,121],[-188,-235],[-262,129],[64,125],[150,-20],[126,141],[-194,151],[-113,0],[-263,-526],[-80,3],[0,150],[121,202],[133,305],[-78,48],[-40,-223],[-133,-126],[-130,-6],[-14,-483],[-397,0],[-4,208],[-42,1],[-1,197],[77,79],[309,30],[0,125],[-52,14],[-640,0],[34,-161],[83,16],[85,-67],[-2,-210],[-151,0],[-15,-61],[-100,0],[-285,-152],[-89,286],[135,83],[-118,68],[-83,-59],[-41,87],[-59,-30],[34,-100],[-37,-62],[-304,-137],[-231,-51],[-66,-48],[51,-273],[-439,-156],[-94,4]],[[374741,570343],[49,295],[-28,293],[106,258],[-29,409],[-103,270],[-340,379],[-54,136]],[[374342,572383],[317,-108],[34,49],[225,11],[69,36],[11,170],[114,7],[23,162],[218,125],[-240,-15],[-10,78],[75,35],[226,36],[162,143],[144,-51],[141,0],[63,-160],[-73,-7],[-30,-83],[314,-57],[31,-44],[183,12],[114,134],[137,-15],[16,113],[70,95],[2,95],[-77,108],[21,147],[109,86],[-268,94],[-1,92],[-96,131],[-163,49],[9,84],[88,0],[23,86],[-95,113],[-97,-62],[-106,14],[-89,-100],[-240,112],[22,99],[-121,184],[-94,-99],[-121,8],[-42,73],[-121,43]],[[375219,574406],[-6,153],[130,185],[-34,76],[133,103],[-6,121],[145,80],[74,83],[-52,112],[32,69],[19,268],[-51,213],[-105,56],[-129,-54],[-26,-75],[-96,53],[-119,-72],[-26,68],[-205,-32],[-117,33],[-93,141],[-155,133],[77,99],[11,119],[114,94],[71,12],[-18,139],[-87,82],[52,117],[-76,310],[10,132],[164,164],[17,217],[-37,48],[-4,248],[-69,95],[2,156]],[[374759,578152],[8,96],[113,301],[-27,148],[-204,66],[-85,102],[42,96],[-47,91],[49,141],[149,213],[184,100],[84,-49],[19,282],[73,54],[99,178],[4,126],[-59,94],[74,119],[137,126],[96,186],[62,258],[-71,122],[5,180],[-34,152],[90,254],[-87,110],[118,202],[96,73],[20,151],[63,59],[-43,137],[153,7],[150,-28],[111,126],[-189,-42],[-29,48],[48,208],[-26,83],[140,215],[108,117],[35,133],[105,159],[181,63],[44,-172],[179,33],[3,81],[85,22],[117,100],[357,16],[91,-57],[20,-120],[151,-20],[124,-90],[49,173],[55,79],[-27,88],[302,136]],[[378024,583678],[134,14],[292,-38],[-61,-280],[78,-141],[345,-161],[85,-19],[52,-77],[-72,-164],[11,-128],[118,-151],[-65,-138],[39,-100],[88,-42],[199,-167],[130,110],[94,22],[94,-134]],[[402918,570760],[20,3]],[[403077,570703],[19,-31]],[[403099,570504],[-15,-65]],[[403116,570375],[50,-40]],[[403181,570337],[20,40]],[[403234,570422],[21,10]],[[403296,570402],[2,-33]],[[403270,570218],[5,-27]],[[403368,569457],[1,-23]],[[402939,569207],[0,-20]],[[403005,568837],[-21,-42]],[[402747,568660],[-84,-32]],[[402082,568203],[-83,-34]],[[401764,568005],[-50,-75]],[[401707,567918],[-30,20],[-463,-698],[-508,-135],[-74,78],[58,54],[202,91],[350,237],[265,429],[-163,52],[-42,-60],[-86,67],[58,-139],[-146,-202],[-132,36],[48,121],[-45,22],[-117,-211],[-131,62],[-73,-208],[45,-70],[-175,-192],[-88,94],[167,390],[-42,23]],[[400585,567779],[195,505],[187,646],[-150,314],[33,317],[-127,282],[-85,324],[-28,292],[35,223],[-12,494],[-16,89]],[[400617,571265],[176,-95],[22,-104],[140,-181],[-45,-77],[143,-34],[85,77],[34,-115],[-21,-98],[65,-9],[208,-171],[122,57],[9,135],[102,-78],[45,-117],[107,9],[125,-79],[34,-92],[51,44],[-53,78],[29,104],[86,4],[-29,127],[72,4],[48,75],[-14,120],[208,-59],[133,69],[212,60],[9,76],[149,-77],[-2,-73],[-190,-24],[139,-71],[96,10]],[[388415,565829],[-135,-62],[24,51],[111,11]],[[384176,567633],[120,256]],[[384296,567889],[76,-23],[44,107],[-64,28]],[[384352,568001],[44,89]],[[384396,568090],[87,-38],[278,-225],[95,-117],[-198,-294],[-482,217]],[[386810,566511],[-251,192],[-29,-6],[-203,184],[-193,94],[-322,96],[-110,-21],[-85,48],[-135,200],[-253,298],[-288,214],[-35,-15],[-280,236],[-203,116]],[[384423,568147],[121,132],[40,94],[162,67],[131,224],[14,107],[211,56],[-30,51]],[[385072,568878],[70,124],[229,50]],[[385371,569052],[222,-31],[40,-105],[139,-35]],[[389194,565771],[-46,-83],[-34,62],[-97,-28],[-296,12],[-346,-9],[49,117],[-169,13],[19,-117],[-74,-25],[-207,21],[-283,64],[-195,146],[-30,-49],[-71,99],[-246,173],[-109,145],[-249,199]],[[399656,568641],[126,-46],[3,-49],[155,-166],[20,-55],[-191,-177],[-68,76],[-83,353],[38,64]],[[399361,568358],[0,87],[-306,1],[-4,263],[175,189],[142,-18],[182,-134],[28,-84],[-76,-194],[-138,-8],[-3,-102]],[[400582,571394],[35,-129]],[[400585,567779],[-119,109],[-115,-99],[118,-47],[-181,-168],[-300,333],[188,174],[105,16],[-46,51],[75,87],[-123,44],[-88,122],[-199,217],[-71,-1],[-323,304],[-2,68],[-97,67],[-90,-113],[-281,119]],[[399036,569062],[-14,189],[-98,142],[-10,99],[-107,129],[-28,193],[30,64],[-73,83],[-99,221],[-154,187],[-92,194],[-147,93],[-42,172],[-52,27],[-72,184],[-247,64],[-88,95],[11,47],[-407,20],[-141,-9]],[[398054,574452],[-19,-81],[109,-23],[131,24],[34,-38],[-67,-137],[57,-35],[138,26],[196,126],[68,12],[52,-77],[18,-127],[-72,-136],[77,-113],[153,-319],[2,-93],[103,-81],[32,-204],[-69,-120],[85,-74],[110,79],[123,-170],[-27,-43],[86,-127],[96,-80],[-129,-115],[-18,42],[-145,-131],[-233,-127],[-103,-21],[-26,97],[-162,-156],[-271,-126],[-54,2],[85,-299],[154,-76],[-220,-96],[-38,-119],[306,63],[173,-42],[56,-111],[62,-5],[192,-171],[183,62],[281,-79],[57,-202],[360,-130],[116,85],[226,84],[229,-65],[-58,60],[-15,188],[104,141]],[[386911,552041],[152,-212],[26,-145],[161,-295],[8,-146],[-43,-62],[30,195],[-191,274],[-2,161],[-160,32],[-53,174],[72,24]],[[385201,556057],[57,-645],[-12,-189],[64,-140],[-31,-38],[18,-263],[-66,-53],[24,-176],[-16,-175],[-70,-142],[112,-180],[102,7],[-103,-85],[59,-35],[162,-198],[250,-3],[105,-187],[-56,-95],[8,-162],[61,72],[92,-418],[-5,-143],[41,-150],[104,-149],[189,-183],[188,-73],[150,-131],[129,-74],[170,-426],[27,-116],[-47,-25],[-5,-143],[57,-256],[106,-7],[65,70],[-28,-202],[-69,-158],[-182,-78],[-290,-69],[-415,-192],[-314,-103],[-257,-40],[-254,-88],[-240,-186],[-351,-201],[-277,-101]],[[384453,549728],[-93,77],[-14,103],[-196,126],[-84,147],[-75,43],[-50,174],[-104,-12],[-64,75],[-85,194],[-5,82],[-110,25],[-307,150],[95,175],[-13,134],[114,79],[49,296],[63,130],[-107,62],[-42,165],[50,40],[13,134],[-88,123],[23,112],[-101,28],[-33,379],[20,98],[133,-117],[127,160],[-55,157],[24,46],[-85,71],[139,108],[105,131],[-45,41],[-178,-33],[-179,148],[-310,83],[18,150],[-133,57],[-108,140],[-120,346],[-136,-60],[-5,-62],[-140,-81],[-180,-50],[-70,-67],[-151,14],[-188,-17],[-138,131],[-144,-100],[-115,20],[-30,193],[-106,-116],[-185,-112],[-146,-27],[-92,23],[-15,181],[-52,38],[-278,9],[-232,-66]],[[380239,554206],[149,377],[170,523],[67,152],[74,265],[148,-41],[137,96],[96,176],[240,659],[63,227],[-10,112],[143,-107],[145,233],[102,303]],[[381763,557181],[256,-33],[115,-99],[185,5],[44,-40],[106,117],[84,21],[34,-157],[177,-20],[44,-64],[219,-14],[191,85],[183,-2],[141,-74],[38,-82],[-69,-81],[-18,-145],[128,-189],[81,-166],[86,-65],[114,-12],[122,85],[51,133],[109,140],[32,117],[226,-47],[36,-62],[69,42],[99,-99],[3,-56],[117,-178],[-34,-277],[-36,-88],[254,74],[68,-14],[77,101],[106,20]],[[398964,568514],[0,-140],[-45,135],[-92,-104],[137,-59],[-37,-119],[-330,37],[-47,77],[-74,-62],[-27,282],[510,125],[5,-172]],[[399036,569062],[-25,-313],[-569,-137],[-14,159],[-61,13]],[[398365,568788],[-2,5]],[[401493,572344],[111,-313],[187,49],[89,-10],[357,24]],[[402307,572109],[7,8]],[[402523,571946],[11,-14]],[[402582,571942],[5,-38]],[[402779,571685],[30,7]],[[402848,571614],[-1,-6]],[[402883,571382],[0,-71]],[[402935,570905],[0,-20]],[[400582,571394],[-83,316],[93,58],[25,-63],[152,-62],[90,182],[79,32],[-138,286],[-121,297],[410,190],[216,-389],[98,87],[90,16]],[[371695,570135],[14,-61]],[[371709,570074],[-14,61]],[[371662,570230],[-47,273],[-50,118],[10,94],[-57,45],[7,131],[74,193],[-85,70],[0,234],[202,9],[4,108],[-118,59],[-141,159],[67,200],[-27,77],[-139,142],[55,72],[-37,92],[-33,-116],[-159,-24],[107,-52],[108,-142],[53,-20],[-81,-237],[44,-38],[-66,-142],[-116,23],[-29,-76],[-93,-35],[35,-216],[-56,2],[132,-459],[5,-71],[111,-117],[-201,-160],[-44,-166],[-191,-89]],[[370906,570171],[108,127],[25,109],[88,98],[26,223],[30,38],[-210,183],[-104,46],[-173,-2],[-117,32],[-5,166],[39,210],[67,109],[59,14],[-108,116],[-252,-38],[-124,-123],[-160,92],[-105,352],[40,54],[2,166],[43,25],[16,202],[-164,226],[-103,39],[-117,193],[-91,48],[-51,108],[139,237],[-38,207],[-122,149],[34,199],[-13,197],[97,89]],[[369662,574062],[111,130],[-6,176],[52,148],[-38,48],[61,196],[112,157],[-36,106],[138,138],[-167,102],[-11,71],[65,194],[81,59],[87,191],[77,7],[35,77],[129,-26],[-50,155],[59,33],[7,128],[186,-39],[98,62],[19,105],[73,87],[91,-19]],[[370835,576348],[198,7],[198,49],[55,-60],[199,29],[61,-77],[-4,121],[43,190],[97,230],[325,16],[59,-95],[-82,-91],[-112,17],[-40,-206],[141,-77],[53,-141],[90,-14],[102,-75],[-12,-107],[-77,-70],[83,-121],[148,-132],[-49,-97],[-126,-10],[-82,-86],[6,-92],[132,-105],[-124,-67],[-44,-119],[-141,-17],[48,-66],[-18,-117],[-81,-187],[-91,-48],[-83,-127],[-104,3],[-58,-77],[-164,19],[-53,-86],[26,-274],[-7,-167],[78,-114],[135,63],[118,-68],[38,-91],[-43,-108],[153,-25],[58,-119],[-59,-141],[97,-197],[168,-184],[91,5],[132,115],[123,59],[1,-285],[35,-161],[108,-141],[28,-86],[-86,-180],[30,-60],[3,-221],[-138,-165],[12,-171],[101,-169],[56,-148],[-14,-66],[-100,-32],[-35,-91],[-188,-61],[-147,-105],[-162,-16],[-87,-150],[-114,-29],[-23,-178],[58,-75],[-49,-110],[-63,-286]],[[386478,596178],[-165,246],[-173,124],[-73,141],[-159,64],[-118,-93],[11,-68],[-87,-6],[-235,-147],[-51,-146],[57,-165],[-41,-73],[-200,15],[-236,-8],[-107,-38],[-83,36],[-149,-11],[-4,55],[-204,2],[-30,85],[-136,68],[-135,18],[-175,-92]],[[383985,596185],[-231,26],[-149,132],[-23,130],[-90,96],[23,38],[-80,122],[-1,157],[-138,78],[-52,174],[-247,170],[-229,24],[25,134],[-31,120],[-61,33],[11,115],[-141,63],[-140,150],[-95,-40],[-147,14],[-149,-108],[-158,13],[-37,-47],[64,-196],[-24,-54],[-230,35],[-278,120],[-120,91],[-87,-72],[-71,55],[-90,-115],[-142,-40],[-75,67],[-43,-65],[-253,-1],[-96,-124],[-15,-140],[200,-242],[-88,-80],[-14,-126],[-165,-153],[-144,-20],[-381,120],[-32,78],[-115,96],[-79,-104],[-94,-52],[-199,-7],[-191,58],[-26,92],[-149,-4],[-125,96],[-248,-145],[-131,50],[-145,-71],[-132,90],[-237,26],[-134,116],[-4,52],[-103,-24],[-74,-91],[-131,-43],[-290,9],[-7,-63]],[[377147,596998],[-62,-12],[-215,181],[-75,209],[-6,140],[-86,225],[66,91],[-52,79],[0,171],[143,146],[31,194],[-40,84],[82,194],[46,11],[66,203],[89,103],[-55,26],[-84,250],[-96,121],[27,60],[-67,183],[-138,30],[-154,105],[-73,112],[-83,-17],[-107,53],[12,130],[-75,217],[91,88],[-81,271],[20,167],[121,11],[139,-60],[108,95],[165,-14],[101,92],[65,306],[-80,110],[78,66],[36,110],[169,-1],[125,200],[65,155],[80,557],[110,47],[151,238],[74,27],[90,-39],[115,104],[135,27],[86,-77],[133,15],[207,69],[114,134],[57,149],[116,204],[134,129],[1,77],[215,218],[76,106],[116,27],[13,146],[-87,-9],[-59,131],[3,93],[89,92],[5,92],[125,177],[94,46],[-67,182],[-61,34],[-13,159],[-73,177],[132,84],[78,126],[62,205],[110,134],[87,41],[113,121],[-4,87],[80,153]],[[380000,606166],[72,-5],[-14,79],[251,-46],[63,59],[-12,95],[-62,58],[84,5],[29,63],[47,-88],[-23,-96],[85,-72],[101,64],[12,106],[59,-89],[199,27],[-75,105],[104,180],[15,163],[97,3],[-37,-193],[-98,-190],[128,-136],[130,-56],[151,-15],[100,115],[117,15],[118,-54],[-45,164],[267,99],[70,-31],[71,117],[134,25],[-36,-118],[183,-130],[154,43],[35,-66],[143,6],[57,-136],[100,7],[98,-74],[-34,-89],[108,31],[57,-69],[171,14],[123,41],[112,-37],[-56,-181],[-121,-97],[188,-234],[96,-9],[57,72],[29,175],[94,96],[53,132],[-45,51],[100,2],[51,146],[64,-70],[84,83],[180,-83],[142,15]],[[384227,605914],[-12,-18]],[[384241,605869],[22,-11]],[[384276,605673],[-5,-23]],[[384428,605299],[18,-8]],[[384469,604857],[-3,-20]],[[384500,604779],[-5,-25]],[[384471,604516],[-2,-18]],[[384464,604488],[-15,-20]],[[383982,603321],[18,1]],[[384163,603203],[25,1]],[[384225,603169],[28,-20]],[[384372,603036],[1,-25]],[[384474,602898],[22,-33]],[[384794,602389],[28,-6]],[[384977,602252],[11,1]],[[385346,602120],[35,-18]],[[385415,602030],[-1,-12]],[[385813,601661],[19,11]],[[385985,601405],[8,-26]],[[385978,600842],[17,-17]],[[386240,600388],[1,-19]],[[386241,600369],[6,-12]],[[386700,600418],[27,9]],[[386753,600424],[29,-24]],[[387208,600447],[8,-21]],[[387400,600428],[14,12]],[[387465,600611],[5,29]],[[387756,600859],[24,1]],[[387951,600856],[22,11]],[[388213,601038],[5,8]],[[388220,601088],[8,14]],[[388277,601126],[14,16]],[[388830,601217],[19,-17]],[[389331,601397],[37,-5]],[[389403,601415],[13,7]],[[389754,601430],[27,-33]],[[389784,601312],[-10,-16]],[[389808,601016],[11,-5]],[[389906,600814],[-9,-18]],[[389976,600642],[3,-16]],[[389979,600626],[9,-25]],[[389994,600406],[0,-20]],[[389977,600331],[-5,-16]],[[390040,600219],[6,-11]],[[389721,599709],[11,-13]],[[389865,599668],[37,-12]],[[389941,599469],[8,-23]],[[389884,599133],[-21,-7]],[[389738,599070],[0,-21]],[[389722,598939],[1,-12]],[[389930,598624],[-3,-21]],[[389933,598571],[10,-10]],[[390025,598426],[4,-16]],[[390001,598303],[9,-16]],[[390037,598257],[5,-35]],[[390044,598168],[3,-15]],[[390049,598097],[3,-22]],[[390205,597876],[7,-25]],[[390221,597787],[-7,-23]],[[390119,596799],[29,-34]],[[390148,596765],[17,-38]],[[390187,596623],[6,-21]],[[390193,596602],[8,-19]],[[390197,596410],[-11,-18]],[[390184,596294],[11,-18]],[[389877,596240],[-26,14]],[[389414,595972],[-24,-20]],[[389337,595902],[-9,-20]],[[389311,595826],[-2,-13]],[[389229,595683],[-5,-22]],[[388563,595363],[-18,2]],[[388243,595363],[-22,17]],[[388149,595684],[-9,19]],[[388071,595765],[-12,12]],[[387457,596048],[-12,26]],[[387229,596235],[-31,-7]],[[386850,596412],[-32,-7]],[[386733,596336],[-22,-24]],[[386549,596196],[-29,-19]],[[384812,573594],[52,-180],[133,-91],[-6,-94],[62,-75],[194,-41],[43,33],[41,-120],[220,-41],[22,48],[154,21],[85,-38],[40,43],[185,-79],[-25,-173],[75,-66],[167,-317]],[[386254,572424],[34,-153],[-93,-206],[5,-224],[65,-33],[-20,-102],[63,-81],[193,-445]],[[386501,571180],[-64,-60],[10,-247],[-42,-116],[-170,135],[-103,41],[-154,127],[-224,-54],[-43,42],[-102,-33],[3,-105],[-94,31],[-276,175],[-29,-161],[-107,-86],[32,-236],[-132,-111],[-137,60],[-124,-145],[27,-133],[-40,-49],[114,-150],[32,-101],[60,29],[15,-188],[53,-108],[-118,83],[-46,-91],[136,-159],[-62,-38],[120,-201],[115,-4],[173,-140],[47,-135]],[[385072,568878],[-223,194],[-126,167],[-35,-71],[63,-89],[-49,-16],[-69,123],[-96,-79],[-162,46],[-43,-46],[-93,47],[-72,-50],[-174,-49],[-119,-1],[-51,-178],[-79,5],[-13,-124],[-58,-114]],[[383673,568643],[30,170],[-90,-166],[34,166],[-89,71],[-229,-557],[-259,111],[-63,-152],[-473,414],[-99,69],[135,494],[76,10],[-106,74],[-110,-37]],[[382430,569310],[61,554],[-75,411],[-53,10],[70,133],[24,231],[82,170],[131,72],[229,-31],[-13,122],[-63,4],[-9,186],[-40,54],[-230,38],[-66,106],[88,6],[44,105],[-115,66],[-58,-58],[-78,111],[-100,68],[38,65],[-99,175],[60,62],[-171,85],[-23,84],[62,68],[-41,152],[-114,160],[-121,69],[-108,18],[-157,-23],[-125,58]],[[382590,574682],[105,-105],[-20,-164],[-101,-41],[-38,-109],[80,-15],[52,-122],[278,34],[194,143],[187,-38],[31,-86],[160,21],[-24,-68],[205,12],[66,-144],[60,18],[26,110],[162,37],[147,-100],[79,-1],[18,-208],[72,-110],[122,-2],[-34,-53],[79,-84],[153,17],[163,-30]],[[368689,568824],[-9,13]],[[368680,568837],[9,-13]],[[370548,570577],[-78,-100],[-52,54],[80,105],[50,-59]],[[370906,570171],[-39,156],[121,143],[-19,59],[98,194],[-196,52],[-168,-32],[-236,-83],[-101,19],[-136,-158],[86,-79],[-16,-187],[-124,61],[-73,-120],[155,-130],[106,-156],[-194,-72],[-55,-49],[-31,-140],[-70,-132],[-181,-129],[-25,-113],[-85,-89],[-105,-16],[-1,-58],[-136,-8],[-46,109],[-393,-25],[-174,61],[-72,-176],[-304,205],[132,196],[-54,24],[-156,-156],[-45,92],[61,54],[-174,327],[-248,249],[-99,0],[15,-172],[-118,-73],[277,51],[16,-222],[-154,-10],[-128,-43],[-79,-105],[-234,-42],[-88,9],[66,116],[-148,16],[-417,-421],[-167,-261]],[[366750,568907],[0,185]],[[366750,569092],[-13,26]],[[366737,569118],[-3,11]],[[366734,569129],[-5,46]],[[366729,569175],[83,94],[-99,180],[-118,-14]],[[366595,569435],[-23,24]],[[366572,569459],[-102,102],[113,219],[19,225],[33,60],[3,164]],[[366638,570229],[6,43]],[[366644,570272],[121,222]],[[366765,570494],[20,11]],[[366785,570505],[25,18]],[[366810,570523],[134,66],[11,96]],[[366955,570685],[28,7]],[[366983,570692],[70,-11]],[[367053,570681],[21,-9]],[[367074,570672],[46,-24],[52,136]],[[367172,570784],[-18,26]],[[367154,570810],[-4,3]],[[367150,570813],[-18,1]],[[367132,570814],[-91,36],[9,72],[-105,68]],[[366945,570990],[-48,29]],[[366897,571019],[-12,7]],[[366885,571026],[-50,-20]],[[366835,571006],[-138,49],[-8,78],[-79,72]],[[366610,571205],[-25,14]],[[366585,571219],[0,118],[77,80],[7,125],[-99,155]],[[366570,571697],[64,37]],[[366634,571734],[-54,167],[21,189],[-80,40]],[[366521,572130],[-25,2]],[[366496,572132],[-82,-18],[-93,114],[6,71],[-73,56],[33,92],[-168,149],[-117,-48],[-91,96]],[[365911,572644],[4,19]],[[365915,572663],[-6,68]],[[365909,572731],[95,128],[3,71],[151,22],[60,-51],[79,117],[84,-16],[118,-88],[21,138],[158,-10],[80,39],[24,213],[-32,143],[-113,45],[-13,89],[114,5],[-20,98],[62,-14],[17,170],[104,149],[234,3],[126,125],[87,-79],[122,-207],[115,-4],[43,60],[188,20],[198,-133],[147,-65],[34,138],[-32,218],[5,198],[105,0],[0,132],[137,-162],[52,-130],[135,-108],[120,-346],[116,-43],[123,85],[50,82],[135,17],[270,279],[126,111],[55,-119],[70,11]],[[391682,582157],[84,-50],[70,-204],[-155,-166],[-38,-155],[-157,-55],[-61,-108],[-105,13],[-93,-161],[-86,-40],[-43,-166],[-126,-6],[-244,-234],[-56,-96],[31,-84],[-100,-131],[-10,-84],[-88,-106]],[[390505,580324],[-145,-210],[-145,-39],[-174,-240],[-13,-192],[57,-94],[-38,-96],[166,-63],[66,-150],[-34,-196],[-208,-128],[-23,-105],[-99,-91],[-143,-14],[-157,-113],[-127,64],[-109,-87],[-214,69],[-91,-17],[-166,-150],[-79,94],[-116,-9],[-79,-189],[-123,38],[-257,-73],[-84,48],[-93,-16],[-82,-131],[-128,-28],[-20,-61],[-121,-52],[-201,76],[-56,165],[-72,86],[-121,-83],[-171,-7],[-110,51],[-157,18],[-67,-66],[-195,-2],[-115,69],[-125,-104]],[[386336,578296],[-132,-55],[-148,34],[-141,85],[-154,-51],[-132,125],[-212,59],[-57,96],[-105,-53],[-60,24],[-50,126],[24,136],[-63,212],[55,85],[-48,101]],[[385113,579220],[102,131],[119,99],[80,-36],[42,-182],[73,-40],[119,101],[207,24],[173,-73],[130,195],[-18,89],[125,144],[-19,69],[41,150],[-45,112],[44,75],[-23,183],[130,148],[68,29],[12,203],[372,243],[94,-17],[-44,78],[-81,17],[28,155],[118,179],[-36,41],[-179,-15],[-16,61],[125,93],[88,-51],[74,49],[125,-29],[89,-214],[70,-48],[66,31],[23,124],[66,101],[142,-4],[87,58],[-38,86],[27,222],[-63,145],[-112,67],[-76,120],[149,147],[147,49],[119,102],[63,169],[3,160]],[[387903,582760],[161,38],[331,-98],[169,21],[36,59],[138,-1],[228,48],[261,-32],[202,51],[35,-49],[-59,-110],[-8,-282],[43,-135],[133,-17],[21,-106],[147,-20],[70,-61],[164,-21],[71,27],[189,-48],[316,74],[79,-263],[196,31],[81,-36],[42,88],[128,75],[115,22],[77,97],[80,25],[87,-49],[207,91],[39,-22]],[[400210,574551],[144,-123],[80,13],[105,-115],[76,-22],[17,-132],[-118,30],[-72,-151],[78,-72],[161,-8],[60,-83],[81,129],[91,-157],[159,-109],[244,-21],[138,103],[108,-69],[123,-10],[44,-56],[129,-22],[-53,-45],[31,-116],[-46,-70],[44,-68],[-106,4],[-83,-75],[29,-117],[-86,0],[-60,-181],[-54,-34],[52,-500],[65,-82],[-98,-48]],[[397621,575424],[-29,130],[-156,162],[65,367],[41,44],[-56,225],[56,64],[-47,70],[-41,183],[28,122],[142,23],[113,95],[93,26],[4,79],[247,98],[156,-87],[106,-192],[88,96],[-4,70],[96,210],[10,93],[-57,156],[63,29],[-20,350],[-189,195],[85,115],[-38,101],[10,167],[36,58]],[[398423,578473],[103,-98],[122,-41],[70,29],[33,-97],[-43,-167],[79,-35],[33,-115],[200,-299],[86,-18],[-57,-108],[8,-169],[185,-85],[-14,-88],[78,-185],[-35,-126],[45,-192],[114,-47],[97,14],[84,-233],[-22,-104],[-69,-17],[-16,-179],[-219,-33],[-73,-165],[-310,36],[111,-67],[0,-135],[271,-91],[59,71],[104,-148],[19,-311],[60,-87],[-8,-160],[138,-35],[162,-230],[-4,-115],[65,-76],[198,28],[133,-44]],[[401226,573551],[-91,-128],[256,22],[-165,106]],[[387348,570541],[-61,118],[-7,134],[118,312],[-299,46],[-40,53],[-48,-75],[-82,47],[-37,-69],[-180,106],[-120,-84],[-91,51]],[[386254,572424],[190,27],[223,-103],[33,-114],[199,200],[82,-37],[71,183],[151,-59],[371,125],[176,180],[35,100],[218,64],[76,61],[9,-94],[109,3],[9,53],[162,114],[186,12],[24,93],[67,42],[26,254],[-181,158],[222,234],[59,127],[133,128],[274,33],[211,-87]],[[389389,574121],[84,-29],[28,84],[70,-1],[181,74],[112,123],[7,62],[132,40],[41,-48],[124,15],[135,88],[74,106],[103,59],[128,164],[-50,93],[90,138],[-54,282],[71,-6],[132,113],[177,5],[76,-48],[59,44],[120,-72],[304,155],[93,101],[8,169],[111,168],[17,120],[56,-3],[115,215],[31,198],[111,90],[52,240],[55,85],[224,197]],[[392406,577142],[100,8],[94,162],[170,75],[158,107],[182,43],[-4,94],[172,60],[77,-174],[-16,-140],[48,-192],[126,-231],[-56,-66],[67,-118],[-79,-112],[48,-168],[110,-18],[42,-125],[13,-175],[-30,-127],[92,-123],[9,-183],[141,-164],[116,-16]],[[382430,569310],[-288,36],[-15,116],[-68,-136],[-305,303],[141,184],[-84,67],[-119,-206],[-542,360],[17,48],[-98,44],[-99,-163],[-196,133],[128,264],[127,-4],[31,88],[-155,62]],[[400210,574551],[103,208],[30,194],[102,-5],[57,-160],[63,14],[-57,96],[62,74],[111,-14],[33,56],[110,-4],[123,86],[-105,178],[-34,149],[50,104],[19,151],[112,19],[-55,60],[186,141],[46,176],[113,35],[90,113],[-75,123],[100,103],[52,-54],[99,166],[94,2],[69,162],[-29,78],[134,33],[34,85],[-114,87],[-34,99],[293,67],[76,166]],[[402280,577430],[21,16]],[[402799,577541],[13,16]],[[402999,577366],[14,-10]],[[403013,577356],[14,1]],[[403064,577342],[4,-20]],[[403613,577126],[22,10]],[[403642,577118],[13,-23]],[[403606,576855],[0,-20]],[[403507,576715],[-29,-11]],[[402725,576798],[-25,-21]],[[402656,576715],[-16,-14]],[[402558,576664],[-31,-1]],[[402527,576663],[-57,-13]],[[402170,576249],[49,-2]],[[402313,576255],[18,-19]],[[402721,575828],[14,2]],[[402893,575941],[25,-10]],[[402903,575702],[-11,-32]],[[402671,575155],[1,-14]],[[402672,575141],[0,-11]],[[402640,575010],[-16,-11]],[[402544,574700],[-18,-38]],[[402442,574432],[18,-35]],[[402491,574316],[-1,-28]],[[402425,574209],[-25,-19]],[[402400,574190],[-31,-27]],[[402158,573785],[17,-37]],[[402236,573311],[0,-36]],[[402236,573275],[2,-45]],[[402041,572895],[-24,-32]],[[401991,572816],[1,-26]],[[402035,572568],[7,-19]],[[402108,572363],[26,-41]],[[402205,572141],[24,-34]],[[384812,573594],[210,54],[-72,162],[11,92],[59,24],[-2,113],[-47,60],[-3,160],[65,52],[11,256],[110,73],[279,341],[29,189],[61,50],[16,115],[-80,149],[-146,138],[38,74],[145,112],[16,234],[66,85],[-29,137],[43,80]],[[385592,576344],[99,94],[-62,164],[33,71],[54,-201],[108,24],[-85,-96],[-8,-87],[68,-71],[125,73],[-73,32],[37,110],[195,80],[-6,61],[156,-109],[105,10],[-37,-183],[159,-77],[111,-127],[23,-199],[-54,-272],[-172,-233],[-65,-218],[181,90],[132,8],[114,120],[367,-82],[36,104],[95,24],[208,-101],[112,320],[79,-2],[104,64],[-8,141],[238,54],[8,-52],[539,144],[128,2],[53,-69],[42,-156],[-53,-97],[71,-130],[129,-15],[77,-58],[1,-161],[95,-19],[76,70],[191,-172],[29,-74],[-53,-113],[60,-83],[22,-138],[67,-84],[16,-99],[-40,-147],[24,-123],[-40,-78],[-14,-157]],[[397858,580428],[51,-66],[-45,-235],[22,-62],[-119,-138],[140,-114],[280,43],[159,-81],[51,-215],[96,-47],[93,-157],[-276,-88],[-80,-113],[22,-117],[-66,-90],[84,-117],[-28,-110],[78,-227],[103,-21]],[[392406,577142],[-187,-35],[-55,60],[-110,10],[-123,327],[-52,311],[53,71],[-200,57],[-162,307],[6,310]],[[391576,578560],[99,-89],[88,-136],[59,-29],[284,138],[184,112],[57,-7],[173,-255],[39,-115],[118,38],[86,89],[118,255],[170,140],[88,279],[-94,141],[47,148],[-26,156],[19,144],[79,75],[123,21],[169,-154],[161,23],[49,-54],[117,67],[87,156],[22,229],[95,67],[85,-212],[156,42],[63,68],[-74,129],[27,308],[123,-14],[28,65],[95,12],[52,115],[124,29],[34,93],[89,44],[103,249],[-17,60],[123,80],[121,-88],[161,71],[88,-33],[120,52],[147,249],[59,50],[62,-188],[149,-84],[265,15],[34,230],[83,104],[95,-111],[35,34],[70,-173],[-29,-58],[240,-157],[-100,-81],[158,-73],[43,-151],[-16,-77],[-85,13],[99,-182],[154,-24],[114,80],[170,74],[246,-37],[109,49],[180,29],[85,-88],[3,-84]],[[386336,578296],[-14,-40],[102,-134],[-10,-108],[55,-61],[-25,-127],[20,-162],[-26,-363],[-63,16],[-132,-123],[-279,-73],[-32,73],[-57,-43],[-334,190],[-31,-122],[-77,-75],[33,-37],[45,-213],[162,-128],[-72,-196],[-157,98],[-87,-62],[-77,-163],[58,-34],[279,74],[-54,-62],[29,-77]],[[381950,576701],[64,71],[-48,377],[57,102],[109,34],[32,146],[-46,64],[22,92],[-33,128],[29,55],[-24,169],[-75,114],[-7,89],[97,148],[104,56],[49,91],[10,210],[35,112]],[[382325,578759],[115,41],[97,253],[-5,186],[51,115],[205,123],[59,-14],[-10,174],[45,20],[252,-78],[38,201],[84,104],[-42,110],[-9,194],[90,61],[293,396],[67,59]],[[383655,580704],[62,-29],[36,-197],[53,-96],[111,-26],[33,-70],[150,-87],[-24,-239],[71,-112],[-47,-98],[7,-196],[66,-45],[-22,-147],[123,-136],[104,92],[91,-31],[47,-97],[130,84],[193,-12],[68,43],[55,-59],[151,-26]],[[399534,580999],[-397,-37],[-1,-63],[-145,54],[-60,-116],[3,-102],[70,-122],[-61,-82],[-187,73],[-51,-79],[4,-97],[-115,-9],[-97,-60],[-91,100],[-333,51],[-215,-82]],[[391576,578560],[40,304],[-4,146],[30,225],[-35,376],[-94,30],[-134,-78],[-221,-60],[35,113],[-64,175],[-202,-88],[-26,110],[45,119],[-94,169],[-113,-33],[-78,126],[-78,23],[-78,107]],[[391682,582157],[78,5],[37,69],[77,-49],[124,144],[98,9],[100,65],[74,-134],[144,-25],[5,-103],[91,-2],[169,-169],[126,54],[-102,242],[10,330],[-14,104],[-111,73],[-79,111],[108,251],[115,90],[-115,-1],[-109,-68],[12,113],[-162,112],[-37,144],[-56,44],[48,70],[10,151],[-138,47],[-17,111],[28,122],[-104,219],[18,160],[96,58],[109,9],[131,311],[86,99],[105,19],[140,-75],[178,66],[120,-75],[115,-13],[180,87],[60,97],[19,140],[323,-42],[25,-60],[121,-63],[137,19],[85,-44],[169,64],[103,-7],[180,64],[79,-34],[90,44],[85,-36],[132,20],[88,-40],[248,42],[84,111],[93,-3],[175,173],[-61,175],[90,119],[102,57],[157,226],[-40,137],[22,106],[-101,288]],[[395835,586485],[10,0]],[[395957,586677],[14,27]],[[395992,586835],[13,16]],[[396063,587030],[13,2]],[[396151,587029],[34,10]],[[396220,587023],[8,-18]],[[396359,587001],[15,5]],[[396552,587014],[44,-11]],[[396902,587024],[35,-33]],[[397276,586982],[18,16]],[[397351,587002],[31,17]],[[397675,586825],[32,-28]],[[397719,586791],[26,-8]],[[397803,586786],[43,13]],[[397903,586283],[-34,-13]],[[397852,586226],[-2,-33]],[[397660,585776],[21,-33]],[[397754,585731],[17,-13]],[[397870,585650],[7,1]],[[398173,585684],[24,-1]],[[398197,585683],[31,-8]],[[398857,585794],[13,14]],[[399514,585731],[-14,-9]],[[399500,585722],[-15,-3]],[[400122,585314],[11,-43]],[[400546,585175],[13,-3]],[[400584,585109],[10,-9]],[[400690,585120],[24,7]],[[401153,585055],[36,-53]],[[401137,584953],[-3,-20]],[[401039,584652],[13,-13]],[[401115,584549],[15,-13]],[[401255,584424],[4,-18]],[[401127,584282],[-1,-22]],[[401133,584121],[-14,-12]],[[401080,583961],[-5,-28]],[[401090,583825],[14,4]],[[401386,583783],[10,-19]],[[401395,583751],[14,-11]],[[401522,583585],[6,-15]],[[401535,583564],[38,-27]],[[401545,583463],[-17,-3]],[[401462,583136],[-5,-31]],[[401383,582981],[-14,2]],[[401165,582867],[-21,6]],[[401056,582856],[-13,-5]],[[401018,582805],[-20,-14]],[[400717,582574],[-2,-28]],[[400690,582371],[-21,-9]],[[400546,581771],[-7,0]],[[399675,581756],[-33,-10]],[[399589,581683],[-24,5]],[[399465,581661],[-23,-8]],[[383985,596185],[-7,-99],[120,-127],[65,-354],[8,-228],[-184,-199],[-43,-89],[-180,-190],[-196,-2],[-209,-55],[-38,64],[-233,-19],[-191,-51],[-97,-89],[-36,-95],[-141,32],[-49,-114],[-90,-66],[55,-21],[-101,-182],[-100,-14],[-51,-60],[-202,-40],[-27,-157],[-75,-114],[86,-101],[30,-98],[-28,-145],[87,-123],[144,-94],[-205,-225],[-90,-187],[-177,-68],[-248,-7],[-49,-87],[-256,-129],[62,-116],[20,-229],[221,-199],[214,-73],[33,-95],[176,-126],[26,-78],[-83,-102],[44,-403],[-129,-107],[-42,-190],[-326,-125],[-194,-36],[-74,-42],[7,-138],[-128,-35],[-261,-9],[-175,248],[-89,189],[-224,31],[-59,62],[-124,42],[-104,-40],[-185,16],[-75,53],[-105,-53],[-128,-155],[-77,-21],[-154,124],[-166,28],[-136,169],[36,244],[-135,-121],[-137,-22],[20,-113],[-141,-199],[-60,-138],[-153,-56],[85,-152],[95,-24],[217,-269],[54,-144],[3,-189],[-123,-40],[-51,-149]],[[378752,589870],[-148,-47],[-85,-70],[-2,-66],[-168,-102],[-170,97],[-45,110],[-160,133],[12,93],[-49,127],[-87,44],[-111,-44],[-56,-148],[-166,70],[-62,-19],[-118,153],[24,186],[-117,114],[-23,94],[-189,201],[20,70],[-107,105],[-142,87],[-120,-16],[-78,97],[-49,-44],[-111,6],[-98,-73],[-203,-337],[-137,-36],[-175,-95],[-102,17],[-334,321],[-83,-19],[-149,160],[-58,139],[-7,211],[-34,36],[-27,332],[-223,70],[-47,91],[-140,99],[-164,181],[-366,88],[-161,169],[9,79],[-234,79],[-74,-20],[11,92],[-65,109],[-90,40],[-76,-26],[-163,148],[-7,120],[-150,40],[-298,234],[-89,88]],[[372711,593438],[12,39]],[[372723,593477],[6,22]],[[372729,593499],[66,90]],[[372795,593589],[10,32]],[[372805,593621],[6,80]],[[372811,593701],[-12,32]],[[372799,593733],[25,113]],[[372824,593846],[3,23]],[[372827,593869],[15,75]],[[372842,593944],[18,1]],[[372860,593945],[73,104],[-174,89],[-45,91],[-84,46],[-47,254]],[[372583,594529],[52,43],[17,139],[-28,111],[76,98],[42,127],[146,44],[211,342],[191,82],[142,146],[251,9],[19,-122],[125,-87],[180,47],[76,-19],[185,123],[217,-15],[122,-34],[168,32],[30,51],[218,38],[-3,-90],[248,-115],[143,-9],[-13,-60],[95,40],[58,-42],[189,8],[92,-203],[66,-39],[13,111],[-74,156],[-2,103],[113,109],[28,217],[137,26],[58,116],[85,39],[39,101],[151,30],[82,86],[120,27],[199,-23],[128,-98],[180,145],[-1,122],[143,240],[-78,227],[-72,90]],[[387903,582760],[-114,6],[-74,55],[-115,0],[-119,-100],[-80,-119],[-92,92],[-116,43],[-81,-31],[-163,23],[-67,-41],[13,184],[-26,141],[-72,42],[22,164],[-50,322],[83,150],[-86,135],[-104,16],[-59,131],[-60,13],[-194,286],[24,177],[52,135],[159,63],[124,221],[50,27],[36,197],[-60,148],[118,84],[91,150],[188,164],[12,81],[201,101],[-11,179],[-87,85],[-296,3],[-43,75],[103,225],[-8,214],[-43,33],[-6,141],[-87,63],[10,136],[61,119],[75,38],[95,242],[-12,51],[103,52],[16,75],[-68,38],[-222,266],[90,86],[27,112],[-78,116],[42,105],[-52,175],[-63,61],[-189,-11],[-180,69],[-119,-38],[-98,-83],[-251,0],[-82,-39]],[[385971,588408],[-132,90],[-16,141],[-156,158],[-136,49],[-81,83],[-100,39],[22,61],[212,45],[80,228],[-102,60],[-70,102],[-15,180],[-59,187],[50,252],[75,93],[57,156],[262,242],[49,146],[-38,105],[239,181],[40,90],[27,369],[119,92],[81,218],[233,180],[5,177],[-34,76]],[[386679,592252],[18,-5]],[[386715,592235],[30,0]],[[387157,591890],[43,2]],[[388331,591508],[20,-19]],[[388552,591546],[11,-1]],[[388850,591303],[12,-19]],[[388975,591130],[-9,-24]],[[388895,590747],[4,-12]],[[389107,590661],[12,6]],[[389186,590680],[9,-23]],[[389204,590638],[12,-10]],[[389281,590591],[13,-12]],[[389363,590542],[-2,-21]],[[389402,590527],[18,-3]],[[389622,590461],[21,-5]],[[389798,590341],[21,-1]],[[389875,590379],[5,9]],[[389938,590454],[6,16]],[[389944,590470],[9,8]],[[390132,590406],[18,-1]],[[390290,590436],[13,14]],[[390375,590499],[12,-9]],[[390418,590356],[0,-14]],[[390425,590329],[-17,-28]],[[390408,590301],[-14,-5]],[[390583,589835],[40,-8]],[[390669,589718],[5,-50]],[[391332,590013],[9,23]],[[391485,590111],[14,28]],[[391830,590311],[13,30]],[[392043,590507],[22,37]],[[392743,590342],[29,10]],[[393092,590435],[19,-1]],[[393226,590413],[17,-1]],[[393326,590473],[31,-5]],[[393424,590441],[29,-27]],[[393542,590374],[24,8]],[[393699,590314],[21,-24]],[[393752,590263],[12,-15]],[[393841,589969],[-11,-8]],[[393901,589435],[-2,-32]],[[393802,589169],[-27,-13]],[[393795,588764],[9,-9]],[[394023,588749],[20,-11]],[[394043,588738],[26,-4]],[[394186,588542],[26,-11]],[[394258,588513],[29,1]],[[394560,588401],[12,-10]],[[394953,588003],[-2,-20]],[[394966,587969],[10,-24]],[[394611,587495],[7,-38]],[[394707,587287],[7,-29]],[[394699,587244],[-4,-26]],[[394695,587218],[-24,-19]],[[394637,587036],[-10,-22]],[[394634,586973],[-9,-18]],[[394698,586812],[19,-2]],[[395010,586598],[26,-26]],[[395074,586557],[12,-6]],[[395102,586542],[19,-9]],[[395186,586431],[5,-14]],[[395319,586379],[39,6]],[[395408,586407],[13,5]],[[395429,586416],[8,10]],[[395622,586424],[34,13]],[[395677,586429],[16,7]],[[395785,586478],[16,18]],[[382842,547327],[144,-90],[1,-90],[149,-111],[17,-154],[-17,-157],[-227,-185],[-24,-102],[-163,26],[-59,-64],[-148,37],[-3,137],[43,60],[-31,122],[62,88],[183,12],[68,101],[-15,149],[-52,101],[72,120]],[[384453,549728],[-165,-61],[-173,-114],[-486,-186],[-306,-208],[-109,-51],[-123,-112],[-133,-215],[-297,-269],[-24,-47],[-447,-219],[-25,-106],[-232,-24],[-369,1],[-204,44],[-230,-72],[-46,10],[-314,-118],[-82,-61],[-279,-67],[-209,-111],[-171,-50],[-141,11],[27,209],[62,184],[-58,308],[-80,95],[-153,85],[-164,157],[-241,68],[-313,15],[19,63],[-63,140],[106,270],[119,109],[136,335],[121,6],[9,114],[216,-70],[-29,137],[30,215],[-119,255],[-31,-56],[-120,-25],[-328,-277],[128,-29],[-5,-102],[-199,-122],[-21,121],[-176,138],[-196,-3],[-63,-28],[-158,50],[-247,-146],[-46,77],[-157,-12],[-206,-185],[-112,-22],[45,65],[165,103],[112,109],[141,89],[119,226],[-110,136],[18,235],[-48,135],[-87,-1],[-27,133],[-101,-44],[-128,2],[-51,54],[68,186],[-8,138],[54,202],[-7,145],[-110,121],[-84,45],[-11,-68],[-67,59],[67,87],[66,-30],[108,75],[199,365],[49,135],[163,342],[157,34],[78,66],[146,238],[31,200],[194,-262],[122,-28],[172,29],[116,-139],[195,27],[217,144],[-52,100],[159,89],[35,-67],[150,97],[199,343],[176,406],[33,108]],[[386470,596177],[-18,-12]],[[386361,595913],[-25,-23]],[[386182,595642],[-16,8]],[[386129,595630],[-2,-29]],[[386111,595528],[20,-7]],[[386145,595442],[19,-35]],[[385937,593740],[-7,-11]],[[385951,593659],[-10,-56]],[[386084,593407],[28,-9]],[[386207,592851],[3,-36]],[[386091,592474],[63,-86]],[[385971,588408],[-96,-191],[-2,-69],[-143,-123],[-127,-21],[-19,-112],[-165,-184]],[[385419,587708],[-319,-14],[-55,59],[-109,-143],[28,-129],[-139,-135],[-18,-223],[-105,-192],[-357,-148],[-49,-121],[-288,-81],[-79,2],[-31,-66],[-212,-24],[-118,-113],[53,-107],[12,-171],[-64,-56],[17,-136],[-116,-116],[-109,-193],[-74,-64],[-259,-141],[-55,-78],[-130,81],[12,48],[-107,51],[-53,198],[-107,-74],[-271,-81],[-276,87],[-203,11],[-91,-45],[-35,-141],[-172,-127],[-76,-256],[-153,-104],[-127,304],[-107,122],[-16,194],[63,129],[-35,44],[-99,-33],[-41,-70],[-113,-34],[-102,-149],[74,-59],[-253,13],[-61,42],[-433,119],[-178,239],[-66,187],[-3,105],[-68,8],[-57,198],[25,97],[137,141],[-164,183],[-30,169],[-90,30],[-70,167],[53,80],[13,165],[40,31]],[[379603,587388],[210,104],[26,169],[-218,94],[8,164],[-55,109],[-191,104],[-51,171],[-70,106],[-221,-54],[-182,148],[30,179],[-41,397],[-161,103],[-65,134],[156,160],[65,145],[-60,81],[-31,168]],[[381763,557181],[55,48],[223,700],[50,129],[72,-41],[115,84],[220,386],[156,87],[95,242],[116,-4],[63,-48],[116,63],[110,-95],[106,0],[252,246],[-24,46],[178,134],[249,475],[93,264],[43,29],[163,366],[110,152],[59,156],[143,86],[23,149],[69,123]],[[384618,560958],[-42,-161],[124,246],[49,-18],[228,257],[121,7],[-59,-51],[187,33],[43,-45],[304,189],[77,3],[55,72],[96,18],[108,145],[112,220],[277,173],[64,-90],[138,89],[185,291],[213,168],[328,502],[78,71],[170,336],[23,94],[121,119],[219,352],[172,113],[49,86],[286,159],[319,84],[59,-27],[116,-201],[84,-66],[61,-220],[155,-218],[131,-40],[70,-86],[-8,-194],[65,-66],[23,-179],[-233,-445],[-164,-211],[-204,-153],[-163,-215],[-87,46],[-33,-73],[70,-51],[-103,-134],[-57,3],[-36,-94],[19,-198],[-35,-124],[-21,-255],[13,-140],[-30,-106],[-215,-392],[-193,-276],[-13,-84],[-231,-268],[-164,-118],[-177,-91],[-109,-111],[-37,-85],[-143,-165],[-108,-213],[-141,-230],[-68,-221],[-73,-97],[-202,-164],[27,-47],[86,68],[59,-47],[-177,-155],[-270,-328],[-54,45],[41,99],[-60,39],[-56,-101],[-174,-152],[88,-35],[106,43],[48,-35],[-262,-372],[-138,106],[-128,-179],[-35,22],[-93,-130],[48,-45],[106,90],[90,-64],[-197,-234],[-74,-116],[-66,43],[-56,-91],[67,-44],[-57,-189],[-135,116],[32,-140],[89,-157],[-135,-411]],[[379603,587388],[-177,27],[-74,-87],[-226,-60],[-143,56],[-124,-54],[-159,-395],[-168,-139],[-194,-65],[-201,92],[-33,-54],[-150,-52],[-20,-171],[69,-60],[79,-174],[-140,57],[68,-108],[-50,-64],[49,-76],[-142,-378],[-236,-359],[-94,-76],[21,-175],[188,-117],[-3,-100],[-93,-108],[-109,-218],[-23,-172],[146,-61],[20,-60],[136,-96],[-47,-257],[63,-102],[89,4],[99,-108]],[[374759,578152],[-137,-16],[-127,72],[-80,-56],[-170,-54],[-183,112],[-2,513],[146,135],[-42,132],[-228,-124],[-113,-137],[-187,-33],[-116,79],[-40,84],[-222,96],[-187,-9],[-91,130],[-5,135],[-60,44],[-159,281],[61,124],[-48,177],[128,108],[-34,62],[-130,70],[-298,-9],[-184,-76],[-172,-4],[183,183],[-184,144],[-79,-56]],[[371999,580259],[-30,92],[91,126],[-104,124],[-199,321],[-10,185],[-106,15],[-160,247],[-97,45],[-112,-107],[-82,36],[-64,-79],[-82,63],[-195,-13],[-205,62],[-228,158],[92,104],[38,292],[-104,183],[72,114],[-63,212],[0,155],[-60,260],[36,76],[-31,113],[177,188],[-25,215],[60,102],[-50,140],[-80,73],[93,138],[73,37],[96,151],[-55,136],[-245,179],[-74,257],[-178,150],[-120,-3],[-137,-81],[-68,107],[-182,54],[19,142],[-68,178],[156,237],[-74,282],[-45,72],[-119,55]],[[369550,585852],[95,163],[20,99]],[[369665,586114],[7,56]],[[369672,586170],[-2,134]],[[369670,586304],[-12,23]],[[369658,586327],[-31,115],[-116,70]],[[369511,586512],[3,14]],[[369514,586526],[-46,28],[32,173],[135,226]],[[369635,586953],[19,23]],[[369654,586976],[25,84],[-6,239],[-46,109],[-311,22]],[[369316,587430],[-47,4]],[[369269,587434],[-257,203],[-98,-20],[-146,55]],[[368768,587672],[-16,7]],[[368752,587679],[-29,26]],[[368723,587705],[22,58],[-32,154]],[[368713,587917],[-7,54]],[[368706,587971],[-80,328]],[[368626,588299],[-3,36]],[[368623,588335],[50,49],[-15,147],[38,68]],[[368696,588599],[-8,7]],[[368688,588606],[-25,62],[44,123],[161,66],[300,159]],[[369168,589016],[6,9]],[[369174,589025],[-4,109],[51,45],[53,201],[87,179]],[[369361,589559],[147,-31]],[[369508,589528],[22,-20]],[[369530,589508],[125,1]],[[369655,589509],[65,-17]],[[369720,589492],[163,-84],[138,-14],[129,-208],[61,15]],[[370211,589201],[18,-5]],[[370229,589196],[66,-53]],[[370295,589143],[29,-27]],[[370324,589116],[72,-28],[174,98],[89,164]],[[370659,589350],[23,30]],[[370682,589380],[113,50]],[[370795,589430],[22,6]],[[370817,589436],[300,6],[205,-42]],[[371322,589400],[4,27]],[[371326,589427],[-50,165]],[[371276,589592],[-3,24]],[[371273,589616],[-14,62],[86,14],[190,138]],[[371535,589830],[16,8]],[[371551,589838],[18,50],[166,-8],[38,53]],[[371773,589933],[15,15]],[[371788,589948],[134,153]],[[371922,590101],[1,27]],[[371923,590128],[63,221]],[[371986,590349],[29,22]],[[372015,590371],[37,52],[117,-54],[68,119]],[[372237,590488],[20,32]],[[372257,590520],[75,66],[222,75],[91,122],[171,93],[72,95],[93,28]],[[372981,590999],[6,18]],[[372987,591017],[-90,213]],[[372897,591230],[-11,40]],[[372886,591270],[8,49]],[[372894,591319],[18,50]],[[372912,591369],[-34,45]],[[372878,591414],[-22,45]],[[372856,591459],[-19,43]],[[372837,591502],[-5,25]],[[372832,591527],[-40,121]],[[372792,591648],[-1,32]],[[372791,591680],[73,221],[-1,180]],[[372863,592081],[2,35]],[[372865,592116],[82,32]],[[372947,592148],[12,40]],[[372959,592188],[-110,189],[-89,50],[-159,214],[5,61]],[[372606,592702],[16,31]],[[372622,592733],[-70,228]],[[372552,592961],[21,92]],[[372573,593053],[59,224],[5,111]],[[372637,593388],[13,5]],[[372650,593393],[36,20]],[[372686,593413],[16,14]],[[372702,593427],[9,11]],[[371695,570135],[14,-61]],[[375219,574406],[-103,-129],[2,-97],[-76,-27],[-85,-352],[-174,-90],[-99,-16],[-62,86],[-187,-240],[22,-211],[-141,-160],[31,-212],[-57,-177],[50,-133],[2,-265]],[[374741,570343],[-155,120],[-218,130],[39,204],[-174,109],[-201,41],[-175,-57],[-63,-58],[-29,113],[-160,111],[-64,-20],[-72,186],[13,65],[-128,39],[-39,-96],[-86,-44],[-124,-258],[-252,-181],[-116,-182],[-96,-95],[-91,46],[56,37],[-45,136],[87,-41],[6,75],[-142,55],[88,167],[-129,43],[-106,-143],[-99,21],[-56,-202],[-140,123],[-185,-132],[38,-81],[-60,-63],[22,-93],[-165,-115],[-58,-73]],[[370835,576348],[-41,169],[22,102],[64,-2],[53,177],[-14,94],[-101,102],[-34,87],[57,171],[-94,-16],[-25,235],[-46,136],[-161,-48],[-35,120],[-209,154],[-50,-33]],[[370221,577796],[27,89],[-119,107],[65,214],[54,-2],[30,155],[130,53],[53,125],[110,109],[119,1],[52,60],[192,88],[13,-39],[142,9],[110,48],[87,-93],[152,357],[167,53],[108,-1],[-75,139],[1,221],[102,98],[-27,127],[124,124],[-5,97],[77,195],[89,129]],[[400013,580810],[7,-20]],[[400021,580782],[14,-30]],[[399955,580208],[-22,-7]],[[399914,580122],[12,-15]],[[399948,580079],[9,-40]],[[399970,580023],[6,-17]],[[399981,579669],[6,-15]],[[399947,579602],[-2,-15]],[[400051,579396],[38,-20]],[[399959,579167],[-25,-12]],[[399889,579177],[-19,-10]],[[399819,578980],[10,-38]],[[399851,578547],[27,-30]],[[400038,578431],[16,-27]],[[400054,578404],[22,-43]],[[400460,578221],[24,-12]],[[400571,578132],[6,-3]],[[400608,578121],[14,27]],[[401075,577937],[8,-20]],[[401059,577845],[1,-13]],[[401102,577741],[15,-16]],[[401210,577670],[29,-29]],[[401239,577641],[25,21]],[[401403,577747],[18,-3]],[[401794,577653],[-17,-5]],[[402020,577496],[16,-29]],[[402053,577384],[12,-39]],[[383655,580704],[57,147],[-9,85],[-149,146],[-114,176],[-67,206],[76,156],[97,52],[155,179],[-68,43],[-55,185],[-92,190],[-95,-8],[-72,96]],[[383319,582357],[-39,167],[64,26],[48,113],[127,99],[-17,215],[107,126],[-9,207],[158,53],[204,153],[-81,148],[0,165],[-66,46],[-20,147],[-47,84],[64,119],[76,251],[272,80],[105,102],[51,114],[-52,122],[73,119],[151,80],[61,208],[-32,93],[71,132],[117,61],[135,142],[90,53],[141,6],[103,129],[22,158],[50,81],[140,95],[100,117],[-40,101],[-3,226],[-119,40],[-29,57],[63,120],[7,107],[54,36],[54,158],[137,30],[-30,152],[34,85],[-57,139],[-108,25],[-30,64]],[[384176,567633],[-179,86],[143,200],[156,-30]],[[384352,568001],[-144,63],[33,83],[155,-57]],[[383942,568441],[129,-7],[80,-104],[-123,-303],[-162,-226],[-426,102],[190,459],[233,-100],[40,99],[-234,100],[24,60],[249,-80]],[[384423,568147],[-101,88],[-33,98],[-263,172],[-182,74],[41,34],[-119,57],[-93,-27]],[[382325,578759],[-209,69],[-84,-71],[-254,112],[-205,-129],[-178,-87],[-222,35],[-152,-154],[-97,0],[83,366],[-54,194],[-127,45],[-105,-50],[-139,85],[-134,6],[-102,177],[-101,79],[-129,-27],[-146,39],[4,133],[-50,57],[54,73],[-53,154],[-110,101],[-80,143],[6,119],[-136,97],[4,161],[-184,81],[-68,104],[-233,88]],[[379585,582084],[105,-22],[87,56],[113,-1],[162,-72],[101,-110],[-39,-165],[60,-37],[57,-140],[252,-63],[107,48],[84,98],[86,-30],[22,59],[124,7],[188,-346],[24,193],[226,45],[158,-49],[107,-92],[221,118],[132,-90],[213,152],[70,25],[198,244],[15,148],[123,137],[267,81],[133,-57],[47,62],[226,18],[65,56]],[[365909,572731],[-235,132]],[[365674,572863],[-16,17]],[[365658,572880],[15,260],[-187,58],[-160,-71],[-81,24],[-79,-84],[-79,35],[-131,-68],[-71,40],[-52,120]],[[364833,573194],[-14,29]],[[364819,573223],[49,104],[-49,108],[39,31]],[[364858,573466],[4,11]],[[364862,573477],[74,61],[-3,83]],[[364933,573621],[-30,15]],[[364903,573636],[-82,131],[33,45],[-89,79]],[[364765,573891],[-12,0]],[[364753,573891],[-115,38],[-89,127]],[[364549,574056],[-12,0]],[[364537,574056],[32,222],[58,76]],[[364627,574354],[-17,32]],[[364610,574386],[11,24]],[[364621,574410],[4,14]],[[364625,574424],[15,17]],[[364640,574441],[2,11]],[[364642,574452],[79,122]],[[364721,574574],[9,10]],[[364730,574584],[36,99],[-35,64]],[[364731,574747],[5,25]],[[364736,574772],[134,69],[100,129]],[[364970,574970],[13,28]],[[364983,574998],[-63,109]],[[364920,575107],[-24,6]],[[364896,575113],[-58,161],[39,113]],[[364877,575387],[18,3]],[[364895,575390],[54,-14]],[[364949,575376],[21,-8]],[[364970,575368],[118,-22],[-45,101],[18,110],[90,24],[49,118],[143,100],[178,23]],[[365521,575822],[4,22]],[[365525,575844],[66,31]],[[365591,575875],[20,2]],[[365611,575877],[27,1]],[[365638,575878],[20,7]],[[365658,575885],[46,19]],[[365704,575904],[4,17]],[[365708,575921],[-31,84],[61,1],[126,102],[26,180]],[[365890,576288],[172,334],[-52,37],[-26,157],[286,219],[219,50],[69,63],[-74,119],[41,47],[103,-118],[65,91],[154,55],[55,153],[231,19],[-172,-210],[-24,-158],[126,-10],[120,-131],[112,-22],[77,69],[94,162],[263,125],[72,135],[-3,129],[198,78],[167,-30],[64,-46],[151,-15],[47,63],[113,15],[140,-37],[44,-112],[128,-45],[66,-121],[10,77],[166,75],[165,9],[70,-59],[151,61],[37,-28],[227,15],[108,68],[223,90],[50,92],[98,43]],[[365890,576288],[-62,27],[-9,132],[-91,-32],[-85,86],[2,98],[-104,62],[17,132]],[[365558,576793],[-2,25]],[[365556,576818],[-129,38]],[[365427,576856],[-27,0]],[[365400,576856],[-164,105],[44,211],[-35,50]],[[365245,577222],[-15,12]],[[365230,577234],[-47,52]],[[365183,577286],[-24,5]],[[365159,577291],[-84,42],[-76,109],[-129,-12]],[[364870,577430],[-4,10]],[[364866,577440],[0,16]],[[364866,577456],[-5,25]],[[364861,577481],[-67,-28],[-34,-92],[-137,115]],[[364623,577476],[-18,15]],[[364605,577491],[-45,55],[15,275]],[[364575,577821],[122,81],[39,99]],[[364736,578001],[17,17]],[[364753,578018],[225,138],[20,121],[67,64]],[[365065,578341],[15,8]],[[365080,578349],[88,29],[140,132]],[[365308,578510],[-24,22]],[[365284,578532],[-62,75]],[[365222,578607],[-7,20]],[[365215,578627],[-21,51]],[[365194,578678],[26,15]],[[365220,578693],[12,123],[80,190],[-107,49],[-41,70],[-93,-3],[32,167],[99,126]],[[365202,579415],[22,-1]],[[365224,579414],[112,42],[38,161],[152,134],[92,47],[-33,48],[-103,-12],[-115,137],[2,48]],[[365369,580019],[-14,7]],[[365355,580026],[-80,24]],[[365275,580050],[-18,7]],[[365257,580057],[-24,19]],[[365233,580076],[-45,8]],[[365188,580084],[-240,83],[5,110]],[[364953,580277],[16,47]],[[364969,580324],[-25,70]],[[364944,580394],[-66,9]],[[364878,580403],[18,69],[137,5],[-106,60],[-22,96],[135,54],[-35,129],[51,44]],[[365056,580860],[38,6]],[[365094,580866],[158,31],[84,224],[121,186],[0,144],[126,-17]],[[365583,581434],[23,-18]],[[365606,581416],[105,22]],[[365711,581438],[26,16]],[[365737,581454],[217,226],[110,-9],[65,-91],[57,0]],[[366186,581580],[49,-6]],[[366235,581574],[60,59],[-34,99]],[[366261,581732],[38,48]],[[366299,581780],[184,-17],[93,-75],[27,144],[-92,151],[14,110]],[[366525,582093],[-6,17]],[[366519,582110],[19,40]],[[366538,582150],[-14,61]],[[366524,582211],[-6,181],[75,103],[10,86],[129,74],[-41,321],[7,236],[-33,77],[183,91],[110,-3],[122,69],[28,-49],[122,116]],[[367230,583513],[3,17]],[[367233,583530],[35,58]],[[367268,583588],[7,-7]],[[367275,583581],[55,-66]],[[367330,583515],[15,-15]],[[367345,583500],[43,33]],[[367388,583533],[10,10]],[[367398,583543],[112,22]],[[367510,583565],[16,-2]],[[367526,583563],[120,-4],[31,89]],[[367677,583648],[4,15]],[[367681,583663],[-21,46]],[[367660,583709],[0,10]],[[367660,583719],[164,202],[-32,28]],[[367792,583949],[-7,13]],[[367785,583962],[2,41]],[[367787,584003],[-14,18]],[[367773,584021],[-35,181],[-4,188],[49,142],[223,226]],[[368006,584758],[-13,25]],[[367993,584783],[-6,78],[-114,57]],[[367873,584918],[-11,-2]],[[367862,584916],[5,20]],[[367867,584936],[19,24]],[[367886,584960],[113,154],[-10,188]],[[367989,585302],[6,7]],[[367995,585309],[7,-10]],[[368002,585299],[7,-3]],[[368009,585296],[14,10]],[[368023,585306],[26,13]],[[368049,585319],[-8,120],[71,177]],[[368112,585616],[6,19]],[[368118,585635],[102,181],[132,40]],[[368352,585856],[2,21]],[[368354,585877],[102,95],[146,-71]],[[368602,585901],[16,18]],[[368618,585919],[78,85]],[[368696,586004],[7,11]],[[368703,586015],[189,-28]],[[368892,585987],[29,22]],[[368921,586009],[166,37],[155,-57]],[[369242,585989],[153,-105]],[[369395,585884],[155,-32]],[[376883,606262],[86,-34],[-91,-47],[5,81]],[[378042,606470],[59,-108],[-48,-98],[-54,7],[43,199]],[[373041,606484],[-3,3]],[[373038,606487],[3,-3]],[[372583,594529],[-136,45]],[[372447,594574],[-34,2]],[[372413,594576],[-187,53],[-84,-24],[-71,51]],[[372071,594656],[-13,2]],[[372058,594658],[-98,109]],[[371960,594767],[-2,16]],[[371958,594783],[-20,30]],[[371938,594813],[-20,4]],[[371918,594817],[-8,-1]],[[371910,594816],[-13,2]],[[371897,594818],[-220,59],[-108,212],[62,223]],[[371631,595312],[15,10]],[[371646,595322],[9,184]],[[371655,595506],[-6,12]],[[371649,595518],[50,77]],[[371699,595595],[9,17]],[[371708,595612],[52,101],[6,143]],[[371766,595856],[-2,23]],[[371764,595879],[0,8]],[[371764,595887],[8,17]],[[371772,595904],[92,119]],[[371864,596023],[-9,22]],[[371855,596045],[14,116]],[[371869,596161],[4,37]],[[371873,596198],[20,103],[-153,162],[50,269],[-57,55]],[[371733,596787],[-13,21]],[[371720,596808],[70,61]],[[371790,596869],[15,8]],[[371805,596877],[45,82],[-55,46]],[[371795,597005],[-12,18]],[[371783,597023],[-21,15]],[[371762,597038],[-1,0]],[[371761,597038],[26,46],[229,106],[59,121],[-50,114],[85,125],[15,141],[69,126],[-99,110],[43,127],[-23,85],[42,219],[-33,89],[-85,27],[-30,90],[64,113],[-50,166],[88,67],[99,241],[38,173],[159,23],[-15,146],[65,27],[93,141],[102,69],[397,443],[58,-79],[160,17],[31,69],[124,-120],[105,97],[107,46],[123,-11],[27,-49],[211,76],[79,67],[77,146],[-141,64],[-11,119],[82,155],[-6,115],[-53,51],[-113,-52],[17,89],[-53,282],[105,174],[-63,72],[-54,220],[74,125],[-89,169],[67,130],[145,77],[60,190],[435,150],[60,-32],[106,45],[220,275],[151,24],[102,65],[4,124],[51,57],[-61,59],[-20,115],[63,100],[48,158],[-122,108],[-100,37],[-8,153],[-195,382],[58,224],[-116,136],[-113,11],[-132,73],[-208,-14],[-102,103],[-191,104],[-139,-117],[-97,5],[-99,67],[-105,9],[-99,101],[-171,254],[-105,52],[-12,103],[95,211],[-45,221],[120,146],[-62,111],[-11,133],[-88,167],[-122,-21],[-60,164]],[[373048,606475],[74,-152],[90,62],[24,120],[105,-29],[57,66],[42,-84],[173,51],[89,121],[87,-20],[184,-167],[114,-249],[91,-17],[139,-119],[48,-183],[147,0],[37,224],[63,-53],[101,26],[26,65],[161,-193],[66,-25],[-8,267],[62,77],[184,-87],[75,54],[44,-114],[152,-81],[100,85],[159,30],[73,-95],[128,-11],[23,-93],[-79,-31],[85,-63],[-38,-65],[106,37],[94,-43],[43,-100],[-29,-173],[96,-110],[150,9],[275,102],[45,217],[-87,6],[-29,73],[91,5],[105,66],[13,-148],[81,2],[112,161],[51,-70],[93,72],[30,99],[-30,72],[88,101],[43,111],[194,75],[57,80],[101,-3],[37,-62],[110,128],[75,-71],[22,-96],[-86,-94],[-25,-121],[-181,38],[120,-152],[-65,-92],[59,-138],[61,-17],[31,101],[113,202],[102,41],[27,113],[128,31],[101,-218],[73,91],[105,1],[66,-64],[33,139],[-1,153],[38,97],[38,-38],[133,26],[54,-152],[-105,-56],[50,-179],[93,-54],[202,56],[43,-97],[107,22],[52,168],[-25,159],[13,136],[166,-19],[54,87],[83,-96],[48,76],[90,23],[40,-57],[56,58],[58,-65],[7,-129],[54,-41],[88,49],[39,-154]],[[371761,597038],[-3,1]],[[371758,597039],[-87,28]],[[371671,597067],[-14,0]],[[371657,597067],[-66,7],[-69,140],[-101,-23]],[[371421,597191],[-18,7]],[[371403,597198],[-17,83],[-95,67],[-328,-15],[-51,53]],[[370912,597386],[-11,4]],[[370901,597390],[-77,23],[-73,143],[-189,31]],[[370562,597587],[-20,113]],[[370542,597700],[-1,17]],[[370541,597717],[-18,174]],[[370523,597891],[-2,24]],[[370521,597915],[-43,261],[14,42]],[[370492,598218],[3,11]],[[370495,598229],[5,91],[-99,77],[-47,129],[20,111]],[[370374,598637],[-2,18]],[[370372,598655],[3,36]],[[370375,598691],[7,17]],[[370382,598708],[4,8]],[[370386,598716],[9,10]],[[370395,598726],[96,113],[-20,33]],[[370471,598872],[13,18]],[[370484,598890],[-64,110],[-57,239],[-80,148],[-36,144]],[[370247,599531],[-4,24]],[[370243,599555],[-23,32]],[[370220,599587],[-13,16]],[[370207,599603],[-53,123],[21,118]],[[370175,599844],[3,19]],[[370178,599863],[87,98],[-105,246],[-94,2],[-208,216],[-87,-25],[-92,55],[65,197]],[[369744,600652],[2,18]],[[369746,600670],[53,39]],[[369799,600709],[5,10]],[[369804,600719],[4,29]],[[369808,600748],[15,32]],[[369823,600780],[7,12]],[[369830,600792],[2,27]],[[369832,600819],[27,38]],[[369859,600857],[11,5]],[[369870,600862],[56,184]],[[369926,601046],[-8,26]],[[369918,601072],[-3,110]],[[369915,601182],[14,21]],[[369929,601203],[78,29]],[[370007,601232],[15,13]],[[370022,601245],[-12,36]],[[370010,601281],[-14,40]],[[369996,601321],[61,120]],[[370057,601441],[9,19]],[[370066,601460],[-122,182]],[[369944,601642],[3,6]],[[369947,601648],[19,17]],[[369966,601665],[44,160],[67,107],[-89,181],[-25,252],[-148,-2],[-90,48],[-131,-49],[-84,153]],[[369510,602515],[-18,39]],[[369492,602554],[-32,82]],[[369460,602636],[-14,16]],[[369446,602652],[54,296]],[[369500,602948],[-1,41]],[[369499,602989],[-48,232]],[[369451,603221],[7,20]],[[369458,603241],[78,95],[-18,79]],[[369518,603415],[-43,-2]],[[369475,603413],[-175,252],[-99,55]],[[369201,603720],[-17,14]],[[369184,603734],[-136,38],[-12,130]],[[369036,603902],[-23,3]],[[369013,603905],[-34,2]],[[368979,603907],[-118,82],[-108,-1]],[[368753,603988],[-23,0]],[[368730,603988],[-40,-18],[-129,102]],[[368561,604072],[-30,26]],[[368531,604098],[-90,66]],[[368441,604164],[-30,1]],[[368411,604165],[-68,33],[-17,109]],[[368326,604307],[2,39]],[[368328,604346],[-5,39]],[[368323,604385],[-13,13]],[[368310,604398],[-6,13]],[[368304,604411],[69,22],[86,-56],[-34,-78],[71,3],[80,93],[129,-82],[20,73],[141,1],[-29,158],[101,-28],[27,98],[56,-36],[87,51],[200,-164],[135,-1],[120,66],[72,101],[121,-57],[90,59],[-52,64],[124,123],[96,-36],[41,-89],[121,108],[-10,-110],[138,-46],[87,41],[30,100],[-120,45],[69,148],[-71,45],[63,131],[86,-36],[39,120],[65,2],[47,-161],[-25,-93],[118,-51],[-19,70],[294,-24],[44,135],[121,142],[53,-49],[70,226],[118,-47],[151,79],[61,-88],[70,50],[8,87],[74,-94],[46,35],[4,121],[53,110],[127,68],[113,145],[129,43],[18,58],[124,-4],[-5,75],[169,63],[48,-89],[97,79],[-57,90],[102,58],[188,-126],[102,121],[104,7],[-51,195]],[[373041,606484],[-3,3]]]}
